X,Y,OBJECTID,Facility,County,Address,City,ZipCode,Type,ResidentialWellsSampled,SiteLead,SiteLeadEmail,SiteLeadPhone,Hyperlink,Longitude,Latitude,FacilityDate
530647.490992371,283887.22274498,1,Belmont - House St.,Kent,1855 House Street,Rockford,49341,Landfill,Yes,Leah Gies,giesl1@michigan.gov,616-215-4781,https://www.michigan.gov/pfasresponse/investigations/sites-aoi/kent-county/house-street-disposal-area,-85.621686,43.105358,
535641.65332579,285817.432551924,2,Rockford Tannery,Kent,123 North Main Street,Rockford,49341,Tannery,No,Leah Gies,giesl1@michigan.gov,616-215-4781,https://www.michigan.gov/pfasresponse/investigations/sites-aoi/kent-county/rockford-tannery,-85.560182,43.122506,
595997.8693689,453501.01737759,3,Camp Grayling - Lake Margrethe,Crawford,Camp Grayling - Lake Margrethe Area,Grayling,49738,Military,Yes,Christiaan Bon,BonC@Michigan.gov,989-370-9624,https://www.michigan.gov/pfasresponse/investigations/sites-aoi/crawford-county/camp-grayling-lake-margrethe,-84.78779,44.626681,
393099.478057023,645124.236373253,4,K.I. Sawyer AFB,Marquette,225 Airport Ave,Gwinn,49841,Military,Yes,Kenneth Heitkamp,HeitkampK@Michigan.gov,517-930-5218,https://www.michigan.gov/pfasresponse/investigations/sites-aoi/marquette-county/ki-sawyer-air-force-base,-87.3873,46.3496,2017/10/31 16:00:00+00
710365.618452443,437625.89059939,5,Wurtsmith AFB,Iosco,No Address - former Air Force Base,Oscoda,48750,Military,Yes,Amy Handley,HandleyA@Michigan.gov,517-898-3356,https://www.michigan.gov/pfasresponse/investigations/sites-aoi/iosco-county/wurtsmith,-83.353421,44.459534,2019/05/01 16:00:00+00
718908.485387961,280004.154976781,6,Lapeer Plating & Plastics,Lapeer,395 Demille Road,"Lapeer
",48446,Plating,No,Brian Zuber,ZuberB@Michigan.gov,517-388-0267,https://www.michigan.gov/pfasresponse/investigations/sites-aoi/lapeer-county/lapeer-plating-plastics,-83.310559,43.03889,2017/11/01 00:00:00+00
615460.121177089,244193.806843778,7,Adams Plating,Ingham,521 N. Rosemary,Lansing,48917,Plating,No,Mark Reimann,ReimannM@Michigan.gov ,517-290-9379,https://www.michigan.gov/pfasresponse/investigations/sites-aoi/ingham-county/adams-plating,-84.587871,42.73954,
701673.692188545,505551.262609368,8,Alpena Hide and Leather Co.,Alpena,817 and 819 W. Miller Street,Alpena,49707,Tannery,No,Janice Adams,AdamsJ1@Michigan.gov ,989-619-4211,"https://www.michigan.gov/pfasresponse/investigations/sites-aoi/alpena-county/alpena-hide-and-leather
",-83.435792,45.07299,
710785.315958215,435505.229207917,9,Whispering Pines MHC,Iosco,4263 Bissonette,Oscoda,48750,Military,Yes,Beth Place,PlaceB1@Michigan.gov,517-899-7524,https://www.michigan.gov/pfasresponse/investigations/sites-aoi/iosco-county/oscoda-area,-83.349011,44.440336,
688326.121984378,285653.85889284,10,Coldwater Road Landfill & Peregrine,Genesee,1245 Coldwater Road,Flint,48458,Landfill,Yes,Nicole Sanabria,SanabriaN@Michigan.gov,517-281-7726,https://www.michigan.gov/pfasresponse/investigations/sites-aoi/genesee-county/coldwater-road-landfill,-83.683883,43.098026,
598159.738240663,340895.534046806,11,Roosevelt Refinery,Isabella,600 W Pickard Street,Mount Pleasant,48858,Refinery,No,Larry Engelhart,EngelhartL@Michigan.gov ,989-891-6946,https://www.michigan.gov/pfasresponse/investigations/sites-aoi/isabella-county/roosevelt-refinery,-84.781676,43.612701,
691446.889769339,504686.314416811,13,Alpena Combat Readiness Center,Alpena,5884 A St.,Alpena,49707,Military,Yes,Christiaan Bon,BonC@Michigan.gov,989-370-9624,https://www.michigan.gov/pfasresponse/investigations/sites-aoi/alpena-county/alpena-crtc,-83.56593683,45.06803886,
417359.779823333,582753.392203572,14,Escanaba Defense Fuel Supply Point,Delta,6734 P Road,Escanaba,49829,Military,Yes,Kenneth Heitkamp,HeitkampK@Michigan.gov,517-930-5218,https://www.michigan.gov/pfasresponse/investigations/sites-aoi/delta-county/escanaba-dfsp,-87.06124303,45.79168882,2017/10/31 16:00:00+00
709337.732165511,439225.096930938,15,Van Etten Lake,Iosco,No address - Lake,Oscoda,48750,Military,Yes,Beth Place,PlaceB1@Michigan.gov,517-899-7524,https://www.michigan.gov/pfasresponse/investigations/sites-aoi/iosco-county/oscoda-area,-83.36568555,44.47421724,2017/11/03 00:00:00+00
709674.583537302,439861.371704626,16,Loud Drive,Iosco,No Address - large area of homes - E. side of Van Etten Lake,Oscoda,48750,MIlitary,Yes,Megan Berry,BerryM5@Michigan.gov,989-295-3877,https://www.michigan.gov/pfasresponse/investigations/sites-aoi/iosco-county/oscoda-area,-83.36119628,44.47984324,2017/11/03 00:00:00+00
707447.726568421,440353.501351969,17,Colbath Road,Iosco,No Address - large area of homes,Oscoda,48750,Fire Related,Yes,Megan Berry,BerryM5@Michigan.gov,989-295-3877,https://www.michigan.gov/pfasresponse/investigations/sites-aoi/iosco-county/oscoda-area,-83.38897836,44.48491182,2017/11/03 00:00:00+00
708886.403365699,433513.48150737,18,Oscoda Area Schools,Iosco,3550 River Road,Oscoda,48750,Unknown,Yes,Megan Berry,BerryM5Michigan.gov,989-295-3877,https://www.michigan.gov/pfasresponse/investigations/sites-aoi/iosco-county/oscoda-area,-83.37365458,44.42296907,2017/11/03 00:00:00+00
704787.551452776,442848.655023994,19,McDonald Store Fire (aka F-41),Iosco,No address-business burned-corner of F-41 and King's Corner Road,Oscoda,48750,Fire Related,Yes,Megan Berry,BerryM5@Michigan.gov,989-295-3877,https://www.michigan.gov/pfasresponse/investigations/sites-aoi/iosco-county/oscoda-area,-83.42141847,44.50811494,2017/11/03 00:00:00+00
533487.901160388,275942.224381859,20,State Disposal Superfund,Kent,3954 East Beltline Rd,Grand Rapids,49525,Landfill,Yes,Erik Martinson,MartinsonE@michigan.gov,517-285-3978,https://www.michigan.gov/pfasresponse/investigations/sites-aoi/kent-county/state-disposal-superfund-site,-85.58728976,43.03369008,2017/11/03 00:00:00+00
615737.767201712,243976.080471294,21,"RACER Lansing Plants 2,3,6",Ingham,"2800 West Saginaw Street; 2801 West Saginaw Street; Corner of W. MI Ave and N. Verlinden",Lansing,48917,Industrial,No,Christine Matlock,MatlockC2@Michigan.gov,517-290-4612,https://www.michigan.gov/pfasresponse/investigations/sites-aoi/ingham-county/racer-plants-2-3-6,-84.58452515,42.73753664,2017/11/03 00:00:00+00
486802.600990339,143351.776914029,22,M-60 Tanker Spill,Cass,2900 Pine Lake Street,Niles,49120,Fire Related,Yes,"Donovan Thomas
","ThomasD38@Michigan.gov 
","269-615-4451

",https://www.michigan.gov/pfasresponse/investigations/sites-aoi/cass-county/m-60-tanker-spill,-86.158,41.84061,2018/03/12 00:00:00+00
539600.945073353,308926.152039682,23,Central Sanitary Landfill,Montcalm,21545 W Cannonsville Road,Pierson,49339,Landfill,Yes,Kent Walters,WaltersK7@Michigan.gov ,616-278-4350,https://www.michigan.gov/pfasresponse/investigations/sites-aoi/montcalm-county/central-sanitary-landfill,-85.50977398,43.33037523,2018/05/02 00:00:00+00
546099.579955886,203094.879971429,24,North 34th Street,Kalamazoo,9899 East D Ave,Richland,49083,Industrial,Yes,Rachel Golota,GolotaR@Michigan.gov,269-370-2404,https://www.michigan.gov/pfasresponse/investigations/sites-aoi/kalamazoo-county/north-34th-street,-85.43879246,42.37701665,2018/06/27 00:00:00+00
525223.509176224,456823.380351133,25,Carl's Retreading,Grand Traverse,5175 Sawyer Woods Drive,Traverse City,49685,Fire Related,Yes,David Maynard,MaynardD@Michigan.gov,231-429-1656,https://www.michigan.gov/pfasresponse/investigations/sites-aoi/grand-traverse-county/carls-retreading,-85.67982625,44.66259046,2018/07/23 00:00:00+00
534983.078264101,199299.27311511,26,Crown Vantage Property,Kalamazoo,100 Island Avenue (multiple addresses),Parchment,49004,Landfill,Yes,Rachel Golota,GolotaR@Michigan.gov,269-370-2404,https://www.michigan.gov/pfasresponse/investigations/sites-aoi/kalamazoo-county/crown-vantage-property,-85.57406045,42.34346935,2018/09/04 00:00:00+00
703950.742513632,290112.096496255,27,Richfield Landfill,Genesee,11145 East Mt Morris Rd,Davison,48423,Landfill,Yes,Evin Maguire,MaguireE@Michigan.gov ,517-388-3525,https://www.michigan.gov/pfasresponse/investigations/sites-aoi/genesee-county/richfield-landfill,-83.49033534,43.13406472,2017/11/03 00:00:00+00
688433.5204362,279384.558611005,28,RACER Buick City,Genesee,902 East Leith St,Flint,48505,Industrial,No,Nicole Sanabria,SanabriaN@Michigan.gov,517-281-7726,https://www.michigan.gov/pfasresponse/investigations/sites-aoi/genesee-county/racer-buick-city,-83.68471157,43.04157036,2018/09/17 00:00:00+00
511661.98050945,366881.065851687,29,Wash King Laundry,Lake,9247 South M-37,Baldwin,49304,Laundromat/Dry Cleaner,Yes,Mark Riemann,ReimannM@michigan.gov,517-290-9379,https://www.michigan.gov/pfasresponse/investigations/sites-aoi/lake-county/wash-king-laundry,-85.85299967,43.85319927,2018/10/17 00:00:00+00
537731.589157145,264974.744128498,30,Lacks Industries - Cascade,Kent,1601 Galbraith Ave SE,Grand Rapids,49546,Plating,Yes,Nicole Sanabria,SanabriaN@Michigan.gov,517-281-7726,https://www.michigan.gov/pfasresponse/investigations/sites-aoi/kent-county/lacks-industries-cascade,-85.53598708,42.934722,2018/10/17 00:00:00+00
473684.933896066,410847.037976078,31,Manistee Plating,Manistee,259 Sixth Ave,Manistee,49660,Plating,No,Brandi Wheeler,WheelerB5@Michigan.gov,231-878-8066,https://www.michigan.gov/pfasresponse/investigations/sites-aoi/manistee-county/manistee-plating,-86.32762564,44.24867952,2018/10/17 00:00:00+00
759447.036404731,233444.646140252,32,Selfridge ANGB,Macomb,"No address - ANG base
",Harrison Charter Township,48045,Military,Yes,Christine Matlock,MatlockC2@Michigan.gov,517-290-4612,https://www.michigan.gov/pfasresponse/investigations/sites-aoi/macomb-county/selfridge-air-national-guard-base-angb,-82.83496906,42.60713708,2018/10/29 00:00:00+00
608962.095566107,305404.874859395,33,Ithaca Sanitary Landfill,Gratiot,West Washington Road,Ithaca,48847,Landfill,Yes,Emily Peabody,PeabodyE@Michigan.gov,517-388-5719,https://www.michigan.gov/pfasresponse/investigations/sites-aoi/gratiot-county/ithaca-sanitary-landfill,-84.65502208,43.29165207,2018/10/29 00:00:00+00
631343.410657689,190485.352307256,34,Michner Plating - Mechanic Street,Jackson,506 North Mechanic Street,Jackson,48912,Plating,No,Shelby Bahaw,BahawS@Michigan.gov,517-388-4899,https://www.michigan.gov/pfasresponse/investigations/sites-aoi/jackson-county/michner-plating,-84.406515,42.253322,2018/12/12 00:00:00+00
711831.869348032,206225.712300563,35,RACER Eckles Road,Wayne,"12950 Eckles Road
",Livonia,48150,Industrial,No,Oonagh McKenna,McKennaO@Michigan.gov,517-643-5324,https://www.michigan.gov/pfasresponse/investigations/sites-aoi/wayne-county/racer-12950-eckles-rd,-83.42534,42.37688,2018/12/12 00:00:00+00
682298.565286144,271341.693209024,36,Flint Bishop International Airport Landfill,Genesee,G-3425 West Bristol Road,Flint,48507,Landfill,Yes,Brian Kuberski,KuberskiB@Michigan.gov,517-243-7574,https://www.michigan.gov/pfasresponse/investigations/sites-aoi/genesee-county/city-of-flint-landfill-at-bishop-international-airport,-83.76265803,42.97068965,2019/01/17 00:00:00+00
538690.107290392,259589.602895428,37,Gerald R. Ford International Airport,Kent,"5500 44th Street SW
",Grand Rapids,49512,Airport,Yes,Brent Ritchie,Ritchieb1@michigan.gov,616-581-1782,https://www.michigan.gov/pfasresponse/investigations/sites-aoi/kent-county/gerald-r-ford-international-airport,-85.524636,42.88618,2019/01/17 00:00:00+00
565822.025428535,264781.049019718,38,Lacks Industries - Saranac,Ionia,6138 Riverside Drive,Saranac,48881,Plating,Yes,Nicole Sanabria,SanabriaN@Michigan.gov,517-281-7726,https://www.michigan.gov/pfasresponse/investigations/sites-aoi/ionia-county/lacks-industries-saranac,-85.191771,42.9309781,2019/01/17 00:00:00+00
669418.123637904,230143.158666683,39,Diamond Chrome Plating,Livingston,604 S. Michigan Avenue,Howell,48843,Plating,Yes,Emily Peabody,PeabodyE@Michigan.gov,517-388-5719,https://www.michigan.gov/pfasresponse/investigations/sites-aoi/livingston-county/diamond-chrome-plating-dcp,-83.933129,42.602822,2019/01/17 00:00:00+00
610393.138104532,315105.775105373,40,MRP (former Total Petroleum Refinery),Gratiot,1610 East Superior Street,Alma,48801,Refinery,Yes,Marc Messina,MessinaM@Michigan.gov,517-219-2394,https://www.michigan.gov/pfasresponse/investigations/sites-aoi/gratiot-county/mrp-properties,-84.6354,43.37878,2019/02/15 00:00:00+00
557006.728706397,233371.100254592,41,Viking Corporation,Barry,210 North Industrial Park Drive,Hastings,49058,Fire Related,No,Lynn Gosson,gossonl@michigan.gov,989-225-0161,https://www.michigan.gov/pfasresponse/investigations/sites-aoi/barry-county/viking-corporation,-85.303125,42.648879,2019/02/15 00:00:00+00
682966.589044048,181332.070472316,42,Washtenaw Industrial Facility LLC (former Universal Die Cast),Washtenaw,232 and 290 Monroe Street,Saline,48176,Plating,Yes,Sam Cairns,cairnss2@michigan.gov,517-898-4058,https://www.michigan.gov/pfasresponse/investigations/sites-aoi/washtenaw-county/washtenaw-industrial-facility,-83.78386,42.16024,2019/02/15 00:00:00+00
787390.52246879,282945.626300694,43,Fort Gratiot Landfill,St. Clair,3290 Keewahdin Road,Fort Gratiot Township,48059,Landfill,Yes,Emily Ebaugh,EbaughE@Michigan.gov,586-255-2935,https://www.michigan.gov/pfasresponse/investigations/sites-aoi/st-clair-county/fort-gratiot-landfill,-82.469256,43.042372,2019/02/28 00:00:00+00
736789.301614085,215929.553054318,44,MacDermind Inc.,Oakland,1221 Farrow Street,Ferndale,48220,Industrial,No,Tianna Kilgore,KilgoreT@Michigan.gov,517-230-4395,https://www.michigan.gov/pfasresponse/investigations/sites-aoi/oakland-county/macdermid-inc,-83.11834,42.45689,2019/02/28 00:00:00+00
482935.922141013,296056.967661382,45,"MAHLE Engine Components, USA, Inc. - Former Harvey Street Muskegon Plant",Muskegon,2051 South Harvey Street,Muskegon,49444,Industrial,N/A,Peter Van Heest,VanHeestP@Michigan.gov ,616-439-8019,https://www.michigan.gov/pfasresponse/investigations/sites-aoi/muskegon-county/mahle-engine-components,-86.20833,43.21548,2019/02/28 00:00:00+00
738657.991092436,198862.034799299,46,Gordie Howe International Bridge,Wayne,Livernois Ave and W. Jefferson Ave,Detroit,48209,Industrial,No,Erik Gurshaw,GurshawE@Michigan.gov,586-291-3418,https://www.michigan.gov/pfasresponse/investigations/sites-aoi/wayne-county/gordie-howe-international-bridge,-83.102806,42.302707,2019/04/04 00:00:00+00
605809.74363822,460207.897211817,47,Camp Grayling – MATES at Range 30,Crawford,2450 W. North Down River Rd,Grayling,49738,Military,Yes,Christiaan Bon,BonC@Michigan.gov,989-370-9624,https://www.michigan.gov/pfasresponse/investigations/sites-aoi/crawford-county/camp-grayling-mates,-84.662739,44.685681,2019/04/04 00:00:00+00
493326.3797625,245604.730548111,48,636 40th Street East ,Allegan,636 East 40th Street,Holland,49423,Industrial,Yes,Ray Spaulding,SpauldingR1@Michigan.gov,517-290-2401,https://www.michigan.gov/pfasresponse/investigations/sites-aoi/allegan-county/636-40th-street-east,-86.080007,42.761355,2019/04/04 00:00:00+00
684527.692833557,183064.199931091,49,Ford Motor Company – Saline Plant,Washtenaw,7700 Michigan Avenue,Saline,48176,Industrial,No,Nicole Sanabria,SanabriaN@Michigan.gov,517-281-7726,https://www.michigan.gov/pfasresponse/investigations/sites-aoi/washtenaw-county/ford-saline-plant,-83.76441,42.17546,2019/05/16 00:00:00+00
521986.212978553,262065.900146088,50,Electro Chemical Finishing - Remico,Kent,2610 Remico Street SW,Wyoming,49519,Plating,N/A,Brent Ritchie,ritchieb1@michigan.gov,616-581-1782,https://www.michigan.gov/pfasresponse/investigations/sites-aoi/kent-county/electro-chemical-finishing-remico,-85.72907,42.909196,2019/05/16 00:00:00+00
481741.376593548,294895.786407528,51,Peerless Plating,Muskegon,2554 Getty Avenue,Muskegon,49444,Plating,No,Nicolas Dawson,DawsonN1@Michigan.gov ,517-897-0912,https://www.michigan.gov/pfasresponse/investigations/sites-aoi/muskegon-county/peerless-plating,-86.223,43.205,2019/05/17 00:00:00+00
708066.130017665,442654.399463744,52,Oscoda Township Dump,Iosco,Kings Corner Road,Oscoda ,48750,Landfill,Yes,Megan Berry,BerryM5@Michigan.gov,989-295-3877,https://www.michigan.gov/pfasresponse/investigations/sites-aoi/iosco-county/oscoda-area,-83.38028336,44.50543233,2019/05/30 00:00:00+00
554652.100179139,279525.101744656,53,Ashley Avenue Disposal Area,Kent,Corner of Ashley Ave and 6 Mile Rd,Grattan,48809,Landfill,Yes,Leah Gies,GiesL1@Michigan.gov,616-215-4781,https://www.michigan.gov/pfasresponse/investigations/sites-aoi/kent-county/ashley-avenue-disposal-area,-85.32714363,43.06466081,2019/06/13 00:00:00+00
545230.05986615,162626.850536155,54,Lear Siegler Inc.,St. Joseph ,236 West Clark Street,Mendon,49072,Industrial,Yes,Ray Spaulding,SpauldingR1@Michigan.gov ,517-290-2401,https://www.michigan.gov/pfasresponse/investigations/sites-aoi/st-joseph-county/lear-siegler-inc,-85.452788,42.012649,2019/06/13 00:00:00+00
700151.568935391,190302.713109787,55,RACER Willow Run,Washtenaw,2930 Ecorse Rd,Ypsilanti,48198,Industrial,No,Ashley Lesser,LesserA@Michigan.gov,517-285-6324,https://www.michigan.gov/pfasresponse/investigations/sites-aoi/washtenaw-county/racer-willow-run,-83.572771,42.236694,2019/06/13 00:00:00+00
493161.866478878,270655.008325526,56,120th Avenue Area,Ottawa,Area around Robinson Elementary School,Grand Haven,49417,Fire Related,Yes,Kelly Moss,MossK@michigan.gov,616-215-4588,https://www.michigan.gov/pfasresponse/investigations/sites-aoi/ottawa-county/120th-avenue-area,-86.08222,42.986905,2019/06/13 00:00:00+00
683853.75031894,220613.515278459,57,Thermofil,Livingston,6150 Whitmore Lake Road,Brighton,48116,Industrial,Yes,Emily Peabody,PeabodyE@Michigan.gov,517-388-5719,https://www.michigan.gov/pfasresponse/investigations/sites-aoi/livingston-county/thermofil,-83.760346,42.513666,2019/07/01 00:00:00+00
535896.768796325,279185.606741761,58,Northeast Gravel,Kent,3769 Cannonsburg Road NE,Belmont,49306,Landfill,Yes,Karen Vorce,VorceK@Michigan.gov,616-439-8008,https://www.michigan.gov/pfasresponse/investigations/sites-aoi/kent-county/northeast-gravel,-85.5575,43.06277778,2019/07/01 00:00:00+00
525294.209107809,264912.877083657,59,BASF Corporation – Inmont Division,Kent,836 Chicago Drive SW,Wyoming,49519,Industrial,No,Brent Ritchie,ritchieb1@michigan.gov,616-581-1782,https://www.michigan.gov/pfasresponse/investigations/sites-aoi/kent-county/basf-corporation-inmont-division,-85.688408,42.934718,2019/07/01 00:00:00+00
485670.290362169,183379.091133824,60,Du-Wel Metals,Van Buren,520 Heywood Street,Hartford,49057,Plating,Yes,Ray Spaulding,SpauldingR1@Michigan.gov ,517-290-2401,https://www.michigan.gov/pfasresponse/investigations/sites-aoi/van-buren-county/du-wel-metals,-86.172332,42.201002,2019/07/02 00:00:00+00
482470.822476623,295419.379699649,61,Former ESCO,Muskegon,1221 E. Barney,Muskegon,49444,Industrial ,No,Peter Van Heest,VanHeestP@Michigan.gov,616-439-8019,https://www.michigan.gov/pfasresponse/investigations/sites-aoi/muskegon-county/former-esco,-86.21404,43.20973,2019/08/01 00:00:00+00
583449.262999906,337847.634983148,62,Isabella County Landfill,Isabella,West Tomah Road,Mount Pleasant,48858,Landfill,No,Lori Babcock,BabcockL4@Michigan.gov,989-460-7352 ,https://www.michigan.gov/pfasresponse/investigations/sites-aoi/isabella-county/isabella-county-landfill,-84.964439,43.587081,2019/08/15 00:00:00+00
603647.699025201,247647.929152359,63,"Grand Ledge Army Aviation Support
Facility and Armory Site",Clinton,10600 W. Eaton Highway,Grand Ledge,48837,Military,Yes,Kim Sakowski,SakowskiK@Michigan.gov,517-582-2219,https://www.michigan.gov/pfasresponse/investigations/sites-aoi/clinton-county/grand-ledge-armory,-84.73151667,42.772375,2019/09/06 00:00:00+00
498507.313835615,298444.719862414,64,Muskegon County Landfill Type II,Muskegon,9366 Apple Ave,Ravenna,49451,Landfill,No,Kent Walters,WaltersK7@Michigan.gov ,616-278-4350,https://www.michigan.gov/pfasresponse/investigations/sites-aoi/muskegon-county/muskegon-county-landfill-type-ii,-86.01664,43.237135,2019/09/24 00:00:00+00
566436.871237438,283885.897154969,65,Pitsch Sanitary Landfill,Ionia,7905 Johnson Road,Belding,48809,Landfill,No,Kent Walters,WaltersK7@Michigan.gov ,616-278-4350,https://www.michigan.gov/pfasresponse/investigations/sites-aoi/ionia-county/pitsch-sanitary-landfill,-85.18187,43.102954,2019/10/10 00:00:00+00
719511.877522123,153849.192027777,66,Ford River Raisin Warehouse,Monroe,3200 East Elm Avenue,Monroe,48162,Industrial,No,Christine Matlock,MatlockC2@Michigan.gov,517-290-4612,https://www.michigan.gov/pfasresponse/investigations/sites-aoi/monroe-county/ford-river-raisin-warehouse,-83.35222,41.90325,2019/10/10 00:00:00+00
528624.631167708,264924.285184316,67,Cottage Grove and Marshall Area,Kent,"800 Block of Cottage Grove Street, SE and 1500 Block of Marshall Avenue, SE",Grand Rapids,49507,Plating,N/A,Brent Ritchie,ritchieb1@michigan.gov,616-581-1782,https://www.michigan.gov/pfasresponse/investigations/sites-aoi/kent-county/cottage-grove-and-marshall-area,-85.647594,42.934692,2019/10/25 00:00:00+00
532446.427400154,261887.171752607,68,Former Keeler Brass – 32nd Street,Kent,"2929 32nd Street, SE",Kentwood,49512,Plating,N/A,Brent Ritchie,Ritchieb1@michigan.gov,616-581-1782,https://www.michigan.gov/pfasresponse/investigations/sites-aoi/kent-county/former-keeler-brass-32nd-street,-85.600948,42.90718,2019/10/25 00:00:00+00
647549.667867308,273514.450750182,69,Partz Corporation,Shiawassee,1232 W. Main Street,Owosso,48867,Plating,N/A,Jessica Tashman,TashmanJ@Michigan.gov,517-245-3931,https://www.michigan.gov/pfasresponse/investigations/sites-aoi/shiawassee-county/partz-corporation,-84.18808,42.99789,2019/10/25 00:00:00+00
618024.911995055,636117.300633854,70,Former Kincheloe Air Force Base,Chippewa,,,49788,Military,Yes,Ashley Miller/Bill Harmon,MillerA65@Michigan.gov,906-235-7435,https://www.michigan.gov/pfasresponse/investigations/sites-aoi/chippewa-county/kincheloe-air-force-base,-84.4664,46.2666,2019/11/05 00:00:00+00
678618.790075345,199551.128899113,71,Former Chrysler Scio Introl Division Site,Washtenaw,2880 Zeeb Road,Dexter,48130,Industrial,Yes,Joseph Rogers,RogersJ5@Michigan.gov,517-555-5312,https://www.michigan.gov/pfasresponse/investigations/sites-aoi/washtenaw-county/chrysler-scio-introl-division,-83.830729,42.325297,2019/11/05 00:00:00+00
598234.374634298,341052.959646712,72,Mt. Pleasant City Landfill,Isabella,1301 North Franklin Street,Mount Pleasant,48858,Landfill,No,Larry Engelhart,EngelhartL@Michigan.gov ,989-891-6946,https://www.michigan.gov/pfasresponse/investigations/sites-aoi/isabella-county/mt-pleasant-city-landfill,-84.7807222,43.6141083,2019/11/13 00:00:00+00
533362.331298575,181593.459629235,73,Portage Former Landfill and Firefighter Training Facility,Kalamazoo,South Westnedge,Portage,49002,Fire Related,Yes,Erica Bays,BaysE@Michigan.gov,269-350-0080,https://www.michigan.gov/pfasresponse/investigations/sites-aoi/kalamazoo-county/portage-former-landfill-ftf,-85.594872,42.184107,2020/01/24 00:00:00+00
668766.987659553,337454.249249758,74,Middleground Landfill,Bay,Middleground Island,Bay City,48706,Landfill,No,Loren Curtis,CurtisL@Michigan.gov ,989-274-0614,https://www.michigan.gov/pfasresponse/investigations/sites-aoi/bay-county/middleground-landfill,-83.90805,43.56895,2020/01/21 00:00:00+00
536935.531969273,193055.003192781,75,Georgia Pacific Corporation,Kalamazoo,2425 King Highway,Kalamazoo,49048,Paper Manufacturing,N/A,Erica Bays,BaysE@Michigan.gov,269-350-0080,https://www.michigan.gov/pfasresponse/investigations/sites-aoi/kalamazoo-county/georgia-pacific-corporation,-85.5508,42.28714,2020/02/07 00:00:00+00
480429.429302066,290345.303923942,76,Muskegon County Airport Area,Muskegon,99 Sinclair Dr,Muskegon,49441,Airport,Yes,Peter Van Heest,VanHeestP@Michigan.gov ,616-439-8019,https://www.michigan.gov/pfasresponse/investigations/sites-aoi/muskegon-county/muskegon-county-airport-area,-86.239,43.164,2020/01/07 00:00:00+00
536910.54390884,192940.907714225,77,Nolichucky Industrial Corp.,Kalamazoo,"2305 King Highway
",Kalamazoo,49048,Paper Manufacturing,N/A,Erica Bays,BaysE@Michigan.gov,269-350-0080,https://www.michigan.gov/pfasresponse/investigations/sites-aoi/kalamazoo-county/nolichucky-industrial-corp,-85.55111111,42.28611389,2019/05/30 00:00:00+00
473868.588723307,317974.830224035,78,White Lake Landfill ,Muskegon ,3278 Colby Road ,Whitehall,49461,Landfill,No,Kent Walters,WaltersK7@Michigan.gov ,616-278-4350,https://www.michigan.gov/pfasresponse/investigations/sites-aoi/muskegon-county/white-lake-landfill,-86.320933,43.412571,2020/02/24 00:00:00+00
527508.415215738,269497.752908089,79,Hoff Industries,Kent,719 Prospect Ave. NE,Grand Rapids,49503,Plating,No,Jason Poll,PollJ@Michigan.gov,616-446-1263 ,https://www.michigan.gov/pfasresponse/investigations/sites-aoi/kent-county/hoff-industries,-85.661029,42.975919,2020/02/26 00:00:00+00
712337.446375679,431836.974221974,80,AuSable Twp Smith Street Area,Iosco,US-23 & Smith St. Vicinity,AuSable Township,48750,Unknown,Yes,Megan Berry,BerryM5@Michigan.gov,989-295-3877,https://www.michigan.gov/pfasresponse/investigations/sites-aoi/iosco-county/oscoda-area,-83.331022,44.406886,2020/02/26 00:00:00+00
527302.359533969,219499.667395368,81,Watson Township Dump,Allegan,115th Avenue,Martin,49070,Landfill,Yes,Ray Spaulding,SpauldingR1@Michigan.gov ,517-290-2401,https://www.michigan.gov/pfasresponse/investigations/sites-aoi/allegan-county/watson-township-dump,-85.66621351,42.5257141,2020/02/24 00:00:00+00
598046.853377227,363773.34849875,82,Clare Water Supply Superfund Site,Clare,Clare Industrial Park,Clare,48617,Plating,Yes,Beth Mead-O’Brien,OBriene1@Michigan.gov,517-242-7829,https://www.michigan.gov/pfasresponse/investigations/sites-aoi/clare-county/clare-water-supply-superfund-site,-84.778854,43.818683,2020/03/12 00:00:00+00
523403.29579122,192584.52022112,83,West KL Avenue Landfill,Kalamazoo,8606 West KL Avenue,Kalamazoo,49009,Landfill,No,Wally Wagaw,WagawW@Michigan.gov ,517-648-1540,https://www.michigan.gov/pfasresponse/investigations/sites-aoi/kalamazoo-county/west-kl-avenue-landfill,-85.714938,42.283493,2020/03/12 00:00:00+00
463718.087804605,172651.921745051,84,Harbor Plating,Berrien,724 South Fair Street,Benton Harbor,49022,Plating,No,"Pablo Mora
","MoraP@Michigan.gov
","269-910-0136
",https://www.michigan.gov/pfasresponse/investigations/sites-aoi/berrien-county/harbor-plating,-86.43755178,42.10381271,2020/03/12 00:00:00+00
739723.349966631,252840.504829748,85,Walker Landfill,Macomb,5001 31 Mile Road,Washington,48095,Landfill,No,Cynthia Paslawski,PaslawskiC@Michigan.gov,586-668-6433,https://www.michigan.gov/pfasresponse/investigations/sites-aoi/macomb-county/walker-landfill,-83.06694444,42.78813333,2020/03/12 00:00:00+00
594913.657849706,385320.812814294,86,City of Harrison Landfill Area,Clare,Foote Drive,Harrison,48625,Landfill,Yes,Lori Babcock,BabcockL4@Michigan.gov,989-460-7352 ,https://www.michigan.gov/pfasresponse/investigations/sites-aoi/clare-county/city-of-harrison-landfill-area,-84.813932,44.01308,2020/03/16 00:00:00+00
700864.995302302,208633.818124411,87,"Advanced Disposal Services Arbor Hills Landfill, Inc.",Washtenaw,Napier Road and Six Mile Road,Northville,48168,Landfill,Yes,Brett Coulter,CoulterB1@Michigan.gov,517-614-7714,https://www.michigan.gov/pfasresponse/investigations/sites-aoi/washtenaw-county/arbor-hills-landfill,-83.5576311,42.4015226,2020/03/31 00:00:00+00
529224.007764953,137741.208265681,88,White Pigeon Paper Company,St. Joseph,15781 River Street,White Pigeon,49099,Paper Manufacturing,Yes,Ray Spaulding,SpauldingR1@Michigan.gov ,517-290-2401,https://www.michigan.gov/pfasresponse/investigations/sites-aoi/st-joseph-county/white-pigeon-paper-company,-85.6475,41.7894,2020/04/02 00:00:00+00
523738.537362586,266249.524838771,89,"Grand Rapids Water Resource Recovery Facility, Former Incinerator Ash Lagoon",Kent,1300 Market Avenue SW,Grand Rapids,49503,Landfill,No,Kent Walters,WaltersK7@Michigan.gov ,616-278-4350,https://www.michigan.gov/pfasresponse/investigations/sites-aoi/kent-county/grand-rapids-water-resource-recovery-facility,-83.976389,42.946809,2020/05/18 00:00:00+00
663712.277821613,318434.580620379,90,Delphi Saginaw Division Plant 2 ,Saginaw,1400 Holmes Street,Saginaw,48602,Industrial,No,Andrew Karg,KargA@Michigan.gov ,989-891-6948,https://www.michigan.gov/pfasresponse/investigations/sites-aoi/saginaw-county/delphi-saginaw-division-plant-2,-83.976389,43.398889,2020/05/18 00:00:00+00
666445.477951531,150716.192891168,91,Adrian Landfill Incorporated,Lenawee,1970 Ogden Highway,Adrian,49221,Landfill,No,Brett Coulter,CoulterB1@Michigan.gov,517-614-7714,https://www.michigan.gov/pfasresponse/investigations/sites-aoi/lenawee-county/adrian-landfill-incorporated,-83.992735,41.888357,2020/05/26 00:00:00+00
714693.685190924,193980.602507719,92,US Ecology Romulus,Wayne,36345 Van Born Road,Romulus,48174,Landfill,No,Nicole Sanabria,SanabriaN@Michigan.gov,517-281-7726,https://www.michigan.gov/pfasresponse/investigations/sites-aoi/wayne-county/us-ecology-romulus,-83.39523,42.26586,2020/05/28 00:00:00+00
738520.304928645,218171.845396766,93,Electro-Plating Services,Oakland,945 East Ten Mile Road,Madison Heights,48071,Plating,No,Joseph DeGrazia,DeGraziaJ@Michigan.gov ,586-291-0476,https://www.michigan.gov/pfasresponse/investigations/sites-aoi/oakland-county/electro-plating-services,-83.096357,42.476531,2020/06/30 00:00:00+00
476422.191246003,180217.407663666,94,Orchard Hill Landfill ,Berrien,3290 Hennesey Road,Watervliet,49098,Landfill,Yes,Nate Whitmyer,whitmyern@michigan.gov,"269-286-1451
",https://www.michigan.gov/pfasresponse/investigations/sites-aoi/berrien-county/orchard-hill-landfill,-86.284213,42.172354,2020/07/20 00:00:00+00
474851.024640462,407408.124201368,95,City of Manistee Former Landfill,Manistee,Adamczak Rd,Manistee,49660,Landfill,Yes,Brandi Wheeler,WheelerB5@Michigan.gov,231-878-8066,https://www.michigan.gov/pfasresponse/investigations/sites-aoi/manistee-county/city-of-manistee-former-landfill,-86.312859,44.217761,2020/07/09 00:00:00+00
721140.412240758,223314.909031595,96,Franklin Village Area,Oakland,Franklin Road between Evelyn Court and Vincennes Avenue/Ravine Dr,Franklin,48025,Unknown,Yes,Kimberly Ethridge,EthridgeK@Michigan.gov ,586-324-0183,https://www.michigan.gov/pfasresponse/investigations/sites-aoi/oakland-county/franklin-village-area,-83.30565106,42.52805421,2020/07/16 00:00:00+00
749793.533684622,205946.943885083,97,"Petro-Chem Processing Group of Nortru, LLC (Petro-Chem)",Wayne,421 Lycaste Street,Detroit,48214,Industrial,No,Tianna Kilgore,KilgoreT@Michigan.gov,517-230-4395,https://www.michigan.gov/pfasresponse/investigations/sites-aoi/wayne-county/petro-chem,-82.9647,42.36292,2020/07/28 00:00:00+00
467252.939484778,376846.423735344,98,Ludington Wastewater Treatment Plant ,Mason,5160 West Sixth Street,Ludington,49431,Wastewater,Yes,Sydney Ruhala,RuhalaS@Michigan.gov ,517-599-5356,https://www.michigan.gov/pfasresponse/investigations/sites-aoi/mason-county/ludington-wastewater-treatment-plant,-86.406107,43.942332,2020/07/29 00:00:00+00
539445.153326778,190490.814923584,99,Aero-Motive Company,Kalamazoo,5688 ML Avenue,Kalamazoo,49048,Industrial,Yes,Pablo Mora,MoraP@Michigan.gov,269-910-0136,https://www.michigan.gov/pfasresponse/investigations/sites-aoi/kalamazoo-county/aero-motive-company,-85.5205555,42.26391389,2020/08/03 00:00:00+00
535259.504106961,295613.310904802,100,Cedar Springs Historic Wastewater Treatment Lagoons and Discharge Fields,Kent,755 and 725 West Street,Cedar Springs,49319,Wastewater,Yes,Leah Gies,GiesL1@Michigan.gov ,616-215-4781,https://www.michigan.gov/pfasresponse/investigations/sites-aoi/kent-county/cedar-springs-historic-wwtl-df,-85.56422,43.21073,2020/08/03 00:00:00+00
479331.150074337,615402.236167194,101,City of Manistique Landfill,Schoolcraft,M-94,Manistique,49854,Landfill,No,Mary Ann St Antoine,StAntoineM@Michigan.gov ,989-370-8035,https://www.michigan.gov/pfasresponse/investigations/sites-aoi/schoolcraft-county/city-of-manistique-landfill,-86.265288,46.090159,2020/08/03 00:00:00+00
707128.266641529,177054.798197272,102,City Sand & Landfill Inc,Wayne,46805 Willow Road,Belleville,48111,Landfill,N/A,Aaron Darling,darlinga5@michigan.gov,586-942-1910,https://www.michigan.gov/pfasresponse/investigations/sites-aoi/wayne-county/city-sand-landfill-inc,-83.49307,42.11558,2020/08/03 00:00:00+00
721882.125249266,241278.249874059,103,Collier Road Landfill,Oakland,575 Collier Road ,Pontiac,48340,Landfill,Yes,Aaron Darling,darlinga5@michigan.gov,586-942-1910,https://www.michigan.gov/pfasresponse/investigations/sites-aoi/oakland-county/collier-road-landfill,-83.28953,42.68951,2020/08/03 00:00:00+00
737415.186339701,356226.362226825,104,Cove Landfill and Huron Landfill Property,Huron,4151 McMillan Rd,Bad Axe,48413,Landfill,Yes,Lori Babcock,BabcockL4@Michigan.gov,989-460-7352 ,https://www.michigan.gov/pfasresponse/investigations/sites-aoi/huron-county/cove-landfill-and-huron-landfill-property,-83.050332,43.719038,2020/08/03 00:00:00+00
671747.49139652,342644.428561672,105,Dow Chemical ITI Facility,Bay,"Martin Street, East of H. S. Truman Parkway",Bay City,48706,Industrial,No,Diana Klida,KlidaD@Michigan.gov,989-280-7687 ,https://www.michigan.gov/pfasresponse/investigations/sites-aoi/bay-county/dow-chemical-iti-facility,-83.869499,43.614978,2020/08/03 00:00:00+00
602313.420351366,233536.110886318,106,Eaton County Landfill,Eaton,East Gresham Highway ,Potterville,48876,Landfill,No,Evin Maguire,MaguireE@Michigan.gov ,517-388-3525,https://www.michigan.gov/pfasresponse/investigations/sites-aoi/eaton-county/eaton-county-landfill,-84.75045,42.64549,2020/08/03 00:00:00+00
481698.557687472,300286.044001382,107,Former Teledyne Vehicle Systems (TDY),Muskegon,76 Getty Street,Muskegon,49442,Industrial,No,Evin Maguire,MaguireE@Michigan.gov,517-388-3535,https://www.michigan.gov/pfasresponse/investigations/sites-aoi/muskegon-county/former-teledyne-vehicle-systems,-86.22369,43.25353,2020/08/03 00:00:00+00
512310.889293317,470583.274560816,108,Glens Sanitary Landfill,Leelanau,518 M-72 West,Maple City,49664,Landfill,No,James Staley,StaleyJ1@Michigan.gov,231-429-1945 ,https://www.michigan.gov/pfasresponse/investigations/sites-aoi/leelanau-county/glens-sanitary-landfill,-85.842367,44.786805,2020/08/03 00:00:00+00
671068.911692,341673.990161989,109,GM Powertrain Bay City,Bay,100 Fitzgerald Street ,Bay City,48708,Industrial,No,Jeremy Peppin,pepinj2@michigan.gov,517-219-2288,https://www.michigan.gov/pfasresponse/investigations/sites-aoi/bay-county/gm-powertrain,-83.878214,43.606401,2020/08/03 00:00:00+00
604735.529068062,455004.084095117,110,Grayling Wastewater Treatment Facility Discharge Fields ,Crawford,Fort Rd,Grayling,49738,Wastewater,TBD,Sydney Ruhala,RuhalaS@Michigan.gov ,517-599-5356 ,https://www.michigan.gov/pfasresponse/investigations/sites-aoi/crawford-county/grayling-wastewater-treatment-facility-discharge-fields,-84.677353,44.638987,2020/08/03 00:00:00+00
557440.539958545,236967.041711417,111,CES Landfill of Hastings,Barry,1899 North M-43 Highway,Hastings,49058,Landfill,No,Kent Walters,WaltersK7@Michigan.gov ,616-278-4350,https://www.michigan.gov/pfasresponse/investigations/sites-aoi/barry-county/ces-landfill-of-hastings,-85.29745,42.681226,2020/08/03 00:00:00+00
697203.995818965,236144.703203855,112,Hi-Mill Manufacturing Superfund Site ,Oakland,1704 Highland Road (M-59) ,Highland Charter Twp,48356,Industrial,No,Jason Harnick,HarnickJ1@Michigan.gov ,517-599-7421,https://www.michigan.gov/pfasresponse/investigations/sites-aoi/oakland-county/hi-mill-manufacturing-superfund-site,-83.592446,42.650122,2020/08/03 00:00:00+00
617811.758752074,240117.406591251,113,Kent Cleaners,Ingham,2911 South Washington Avenue ,Lansing,48910,Laundromat/Dry Cleaner,No,Kim Sakowski,SakowskiK@Michigan.gov,517-582-2219,https://www.michigan.gov/pfasresponse/investigations/sites-aoi/ingham-county/kent-cleaners,-84.56001524,42.70246877,2020/08/03 00:00:00+00
635013.720411936,179306.070991959,114,Liberty Environmentalists Landfill,Jackson,7900 South Meridian Road,Clark Lake,49234,Landfill,No,Brett Coulter,CoulterB1@Michigan.gov,517-614-7714,https://www.michigan.gov/pfasresponse/investigations/sites-aoi/jackson-county/liberty-environmentalists-landfill,-84.36471,42.152011,2020/08/03 00:00:00+00
665347.76656074,232617.585029473,115,Livingston County Airport,Livingston,3399 County Airport Drive,Howell,48843,Airport,No,Rebecca Taylor,TaylorR@Michigan.gov ,517-284-5160,https://www.michigan.gov/pfasresponse/investigations/sites-aoi/livingston-county/livingston-county-airport,-83.982,42.626,2020/08/03 00:00:00+00
670235.698298274,235606.16212675,116,Livingston County Landfill,Livingston,E Barron Rd,Howell,48855,Landfill,Yes,Evin Maguire,MaguireE@Michigan.gov ,517-388-3525,https://www.michigan.gov/pfasresponse/investigations/sites-aoi/livingston-county/livingston-county-landfill,-83.9215,42.65182,2020/08/03 00:00:00+00
722132.258502091,269990.880845165,117,Metamora Landfill Superfund Site,Lapeer,1811 Dryden Road,Metamora,48455,Landfill,Yes,Erik Martinson,MartinsonE@Michigan.gov ,517-285-3978,https://www.michigan.gov/pfasresponse/investigations/sites-aoi/lapeer-county/metamora-landfill-superfund-site,-83.27503,42.947836,2020/08/03 00:00:00+00
692562.846940087,214639.529512692,118,"Michigan Seamless Tube, LLC",Oakland,400 Mcmunn St,South Lyon,48178,Industrial,No,Joe Rogers,RogersJ5@Michigan.gov ,517-599-5312,https://www.michigan.gov/pfasresponse/investigations/sites-aoi/oakland-county/michigan-seamless-tube-llc,-83.656419,42.45773,2020/08/03 00:00:00+00
647699.289033623,489416.17925832,119,Montmorency-Oscoda-Alpena Landfill,Montmorency,6751 Landfill Road,Atlanta,49709,Landfill,No,John Ozoga ,OzogaJ@Michigan.gov,231-429-1718,https://www.michigan.gov/pfasresponse/investigations/sites-aoi/montmorency-county/montmorency-oscoda-alpena-landfill,-84.12584,44.94109,2020/08/03 00:00:00+00
497783.165550442,300829.809111565,120,Muskegon County Wastewater Management System Metro Wastewater Treatment Plant ,Muskegon,698 North Maple Island Road,Muskegon,49442,Wastewater,TBD,Sydney Ruhala,RuhalaS@Michigan.gov ,517-599-5356 ,https://www.michigan.gov/pfasresponse/investigations/sites-aoi/muskegon-county/muskegon-county-wwms-metro-wwtp,-86.02556,43.25861,2020/08/03 00:00:00+00
472828.258868323,315311.111648111,121,Muskegon Chemical Company,Muskegon,1725 Warner Street ,Whitehall,49461,Industrial,No,Nicolas Dawson,DawsonN1@Michigan.gov ,517-897-0912,https://www.michigan.gov/pfasresponse/investigations/sites-aoi/muskegon-county/muskegon-chemical-company,-86.333655,43.388554,2020/08/03 00:00:00+00
725227.101957837,243498.899350838,122,Oakland Heights Development Landfill,Oakland,2350 Brown Road ,Auburn Hills,48326,Landfill,Yes,Jim Bakun,BakunJ@Michigan.gov ,586-753-3834,https://www.michigan.gov/pfasresponse/investigations/sites-aoi/oakland-county/oakland-heights-development-landfill,-83.24783,42.70851,2020/08/03 00:00:00+00
672616.739178322,304910.519347586,123,Peoples Landfill,Saginaw,4143 East Rathbun Road,Birch Run,48415,Landfill,Yes,Lori Babcock,BabcockL4@Michigan.gov,989-460-7352 ,https://www.michigan.gov/pfasresponse/investigations/sites-aoi/saginaw-county/peoples-landfill,-83.870768,43.275145,2020/08/03 00:00:00+00
735637.486363362,217294.489123239,124,Reichhold East Area,Oakland,3101 Bermuda,Ferndale,48220,Industrial,No,Nicole Sanabria,SanabriaN@Michigan.gov,517-281-7726,https://www.michigan.gov/pfasresponse/investigations/sites-aoi/oakland-county/reichhold-east-area,-83.13177,42.46953,2020/08/03 00:00:00+00
663950.899012512,318643.959675565,125,Saginaw Malleable Iron,Saginaw,77 West Center Street ,Saginaw,48602,Industrial,No,"Andrew Karg
",KargA@Michigan.gov ,989-891-6948,https://www.michigan.gov/pfasresponse/investigations/sites-aoi/saginaw-county/saginaw-malleable-iron,-83.97338,43.400721,2020/08/03 00:00:00+00
739653.773763619,251758.904750867,126,South Macomb Disposal Authority Landfill #11 ,Macomb,65921 Mound Road ,Washington,48095,Landfill,Yes,Jim Bakun,BakunJ@Michigan.gov ,586-753-3834,https://www.michigan.gov/pfasresponse/investigations/sites-aoi/macomb-county/south-macomb-disposal-authority-landfill-11-landfill,-83.0682584,42.7784224,2020/08/03 00:00:00+00
753033.188582463,241759.446975288,127,South Macomb Disposal Authority Landfills 9/9A ,Macomb,24 Mile Road,Macomb Township,48042,Landfill,Yes,Samantha Belisle,BelisleS1@Michigan.gov,517-290-0686,https://www.michigan.gov/pfasresponse/investigations/sites-aoi/macomb-county/south-macomb-disposal-authority-landfills-9-9a,-82.909353,42.684108,2020/08/03 00:00:00+00
526311.630476294,265027.073226774,128,Steele Avenue Area,Kent,1500 Block of Steele Avenue SW ,Grand Rapids,49507,Industrial,No,Brent Ritchie,Ritchieb1@michigan.gov,616-581-1782,https://www.michigan.gov/pfasresponse/investigations/sites-aoi/kent-county/steele-avenue-area,-85.675934,42.935709,2020/08/03 00:00:00+00
550781.499331058,139586.148266003,129,Sturgis City Landfill,St. Joseph,US-12 and Big Hill Road,Sturgis,49091,Landfill,Yes,"Ray Spaulding
","SpauldingR1@Michigan.gov 
","517-290-2401
",https://www.michigan.gov/pfasresponse/investigations/sites-aoi/st-joseph-county/sturgis-city-landfill,-85.387928,41.804786,2020/08/03 00:00:00+00
764512.42929394,325882.625757053,130,Tri-City Recycling and Disposal Facility - Messman Site,Sanilac,426 North Ruth Road,Carsonville,48419,Landfill,Yes,Lori Babcock,BabcockL4@Michigan.gov,989-460-7352 ,https://www.michigan.gov/pfasresponse/investigations/sites-aoi/sanilac-county/tri-city-recycling-and-disposal-facility-messman-site,-82.729143,43.436952,2020/08/03 00:00:00+00
664533.044148153,272478.899918519,131,Venice Park Recycling Disposal Facility,Shiawassee,9536 East Lennon Road,Lennon,48449,Landfill,No,Evin Maguire,MaguireE@Michigan.gov ,517-388-3525,https://www.michigan.gov/pfasresponse/investigations/sites-aoi/shiawassee-county/venice-park-recycling-and-disposal-facility,-83.9801,42.98503,2020/08/03 00:00:00+00
704452.552453419,188742.312942335,132,Wayne Disposal Site 1 Landfill,Wayne,49350 North I-94 Service Drive,Belleville,48111,Landfill,No,Christine Matlock,MatlockC2@Michigan.gov,517-290-4612,https://www.michigan.gov/pfasresponse/investigations/sites-aoi/wayne-county/wayne-disposal-site-1-landfill,-83.52123,42.22151,2020/08/03 00:00:00+00
662609.886159148,202617.015987531,133,Werkner Road Landfill ,Washtenaw,8027 Werkner Road,Chelsea,48118,Landfill,Yes,Brett Coulter,CoulterB1@Michigan.gov,517-614-7714,https://www.michigan.gov/pfasresponse/investigations/sites-aoi/washtenaw-county/werkner-road-landfill,-84.0240829,42.3564922,2020/08/03 00:00:00+00
526528.246828257,152575.885101434,134,Westside Recycling and Disposal Facility ,St. Joseph,14094 M-60 West,Three Rivers,49093,Landfill,Yes,"Nathan Whitmyer
",WhitmyerN@Michigan.gov,"269-286-1451
",https://www.michigan.gov/pfasresponse/investigations/sites-aoi/st-joseph-county/westside-recycling-and-disposal-facility,-85.679149,41.9231,2020/08/03 00:00:00+00
686573.361557778,227389.41660271,135,Brighton Township Dump,Livingston,Corlett Drive,Brighton Township,48114,Landfill,Yes,Rebecca Taylor,TaylorR@Michigan.gov ,517-284-5160,https://www.michigan.gov/pfasresponse/investigations/sites-aoi/livingston-county/brighton-township-dump,-83.725,42.574,2020/08/03 00:00:00+00
609010.110871887,217650.505641939,136,Eaton Rapids Municipal Landfill,Eaton,Hogsback Rd,Eaton Rapids,48827,Landfill,Yes,Rebecca Taylor,TaylorR@Michigan.gov ,517-284-5160,https://www.michigan.gov/pfasresponse/investigations/sites-aoi/eaton-county/eaton-rapids-municipal-landfill,-84.6719,42.5015,2020/08/04 00:00:00+00
472611.438413988,139946.53511739,137,Southeast Berrien County Landfill Authority,Berrien,1540 Mayflower Road,Niles,49120,Landfill,No,Nathan Whitmyer,Nathan Whitmyer,269-286-1451,https://www.michigan.gov/pfasresponse/investigations/sites-aoi/berrien-county/southeast-berrien-county-landfill-authority,-86.328737,41.809668,2020/08/03 00:00:00+00
536522.539191779,192949.451418188,138,"Allied Paper, Inc./Portage Creek/Kalamazoo River Superfund Site, King Highway Landfill (OU3) ",Kalamazoo,"Intersection of King Highway and Michigan Ave.
",Kalamazoo,49001,Landfill,No,Daniel Peabody,PeabodyD@Michigan.gov,517-285-3924,https://www.michigan.gov/pfasresponse/investigations/sites-aoi/kalamazoo-county/allied-paper-king-highway-landfill-ou3,-85.555816,42.286211,2020/09/03 00:00:00+00
537461.142677378,192528.374114463,139,"Allied Paper, Inc./Portage Creek/Kalamazoo River Superfund Site, Willow Boulevard/A-Site Landfill (OU2)",Kalamazoo,Near the intersection of Lake Street and Olmstead Road,Kalamazoo Township,49048,Landfill,No,Daniel Peabody,PeabodyD@Michigan.gov,517-285-3924,https://www.michigan.gov/pfasresponse/investigations/sites-aoi/kalamazoo-county/allied-paper-willow-boulevard-landfill-ou2,-85.544463,42.28237,2020/09/03 00:00:00+00
733388.232756938,195375.300809278,140,Marathon Petroleum Company,Wayne,1300 South Fort Street,Detroit,48217,Refinery,N/A,Eric Larson,LarsonE5@Michigan.gov ,586-255-6196,https://www.michigan.gov/pfasresponse/investigations/sites-aoi/wayne-county/marathon-petroleum-company,-83.168127,42.272948,2020/09/09 00:00:00+00
534638.747432425,191157.314303324,141,"Allied Paper, Inc./Portage Creek/Kalamazoo River Superfund Site, Allied Paper Landfill (OU1).",Kalamazoo,268 East Alcott,Kalamazoo,49001,Landfill,No,Daniel Peabody,PeabodyD@Michigan.gov,517-285-3924,https://www.michigan.gov/pfasresponse/investigations/sites-aoi/kalamazoo-county/allied-paper-landfill-ou1,-85.578781,42.270168,2020/09/03 00:00:00+00
368294.761094854,520078.500518101,142,Great Lakes Pulp Company Landfill,Menominee,7 1/2 Mile Road,Menominee ,49858,Landfill,Yes,Mary Ann St Antoine,StAntoineM@Michigan.gov ,989-370-8035,https://www.michigan.gov/pfasresponse/investigations/sites-aoi/menominee-county/great-lakes-pulp-company-landfill,-87.67548,45.220143,2020/08/28 00:00:00+00
689576.534649764,272701.915219172,143,Hemphill Road Industrial Land – RACER,Genesee,Southeast corner of the South Saginaw Street and Hemphill Road,Burton,48529,Industrial,Yes,Brian Kuberski,KuberskiB@Michigan.gov,517-243-7574,https://www.michigan.gov/pfasresponse/investigations/sites-aoi/genesee-county/racer-hemphill-road-industrial-land,-83.672983,42.981133,2020/09/03 00:00:00+00
689000.660661819,281312.848613199,144,Lockhart Chemical Company,Genesee,4302 James P Cole Boulevard,Flint,48505,Industrial,No,Brian Kuberski,KuberskiB@Michigan.gov,517-243-7574,https://www.michigan.gov/pfasresponse/investigations/sites-aoi/genesee-county/lockhart-chemical-company,-83.67709,43.058784,2020/09/03 00:00:00+00
687047.388177307,276071.799866142,145,RACER Flint West,Genesee,Northwest corner of Glenwood Avenue and Stevenson Street ,Flint,48503,Industrial,No,Shaun Shields,ShieldS5@Michigan.gov,517-331-8950,https://www.michigan.gov/pfasresponse/investigations/sites-aoi/genesee-county/racer-flint-west,-83.702846,43.012099,2020/09/03 00:00:00+00
682968.898884925,220960.118000334,146,1279 Rickett Road ,Livingston,1279 Rickett Road ,Brighton,48116,Industrial,Yes,Rebecca Taylor,TaylorR@Michigan.gov ,517-284-5160,https://www.michigan.gov/pfasresponse/investigations/sites-aoi/livingston-county/1279-rickett-road,-83.771,42.517,2020/09/09 00:00:00+00
733953.212617694,198247.699851715,147,Rouge Manufacturing Complex ,Wayne,3001 Miller Road ,Dearborn,48126,Industrial,No,Jeremy Pepin,PepinJ2@Michigan.gov,517-219-2288,https://www.michigan.gov/pfasresponse/investigations/sites-aoi/wayne-county/rouge-manufacturing-complex,-83.1601,42.298628,2020/09/09 00:00:00+00
737838.245701058,239012.247348356,148,Southeastern Oakland County Resource Recovery Authority (SOCRRA) Avon Landfill,Oakland,1741 School Road,Rochester Hills,48307,Landfill,Yes,Aaron Darling,darlinga5@michigan.gov,586-942-1910,https://www.michigan.gov/pfasresponse/investigations/sites-aoi/oakland-county/socrra,-83.09585,42.66429,2020/11/09 00:00:00+00
525579.588709235,266130.281828179,149,Former Keeler Brass – Godfrey Ave,Kent,955 and 945 Godfrey Avenue SW,Grand Rapids,49503,Plating,No,Peter Van Heest,VanHeestP@Michigan.gov ,616-439-8019,https://www.michigan.gov/pfasresponse/investigations/sites-aoi/kent-county/former-keeler-brass-godfrey-ave,-85.68485,42.94567,2020/11/13 00:00:00+00
735386.456437075,190073.488778967,150,BASF – Northworks Wyandotte,Wayne,1609 Biddle Avenue,Wyandotte,48192,Industrial,No,Marc Messina,MessinaM@Michigan.gov,517-219-2394,https://www.michigan.gov/pfasresponse/investigations/sites-aoi/wayne-county/basf-northworks-wyandotte,-83.1461,42.22462,2020/11/24 00:00:00+00
600916.26033576,459466.230627935,151,Grayling Army Airfield ,Crawford,Grayling Area,Grayling,49738,Military,Yes,Christiaan Bon,BonC@Michigan.gov,989-370-9624,https://www.michigan.gov/pfasresponse/investigations/sites-aoi/crawford-county/grayling-army-airfield,-84.724621,44.679698,2017/11/03 00:00:00+00
594357.44747683,558291.462918077,152,Pellston Regional Airport,Emmet,1395 US-31,Pellston,49769,Airport,Yes,Christiaan Bon,BonC@Michigan.gov,989-370-9624,https://www.michigan.gov/pfasresponse/investigations/sites-aoi/emmet-county/pellston-regional-airport,-84.788719,45.570022,2020/12/07 00:00:00+00
483866.656174003,306326.341783634,153,Former Northside Landfill,Muskegon,E. McMillan Road,Muskegon,49445,Landfill,Yes,Matthew Pfister,PfisterM@Michigan.gov,616-485-1861,https://www.michigan.gov/pfasresponse/investigations/sites-aoi/muskegon-county/former-northside-landfill,-86.19714388,43.30795864,2021/01/15 00:00:00+00
704145.70519341,190542.815437173,154,"Willow Run Airport, Ypsilanti",Wayne and Washtenaw,801 Willow Run Airport,Ypsilanti,48198,Airport,No,Eric Larson,LarsonE5@Michigan.gov,586-255-6196,https://www.michigan.gov/pfasresponse/investigations/sites-aoi/wayne-county/willow-run-airport,-83.5243,42.2378,2021/02/03 00:00:00+00
574741.982326241,304420.461717332,155,Former City of Stanton Landfill,Montcalm,South end Grove Street,Stanton,48888,Landfill,Yes,Peter Van Heest,VanHeestP@Michigan.gov ,616-439-8019,https://www.michigan.gov/pfasresponse/investigations/sites-aoi/montcalm-county/former-city-of-stanton-landfill,-85.07697,43.28705,2021/02/11 00:00:00+00
536865.051108793,187278.534871727,156,Kalamazoo/Battle Creek International Airport,Kalamazoo,5235 Portage Road ,Portage,49002,Airport,Yes,Gregg Brettmann,BrettmannG@Michigan.gov,269-567-3528,https://www.michigan.gov/pfasresponse/investigations/sites-aoi/kalamazoo-county/kalamazoo-battle-creek-international-airport,-85.55206108,42.23512619,2021/03/01 00:00:00+00
415122.617604468,574628.7511974,157,Delta County Airport,Delta,3300 Airport Road,Escanaba,49829,Airport,Yes,Elizabeth DeLiefde,DeLiefdeE@Michigan.gov ,906-235-0002,https://www.michigan.gov/pfasresponse/investigations/sites-aoi/delta-county/delta-county-airport,-87.0886,45.7183,2021/03/18 00:00:00+00
508528.697003138,184502.708332944,158,Paw Paw Plating,Van Buren ,139 Commercial Street ,Paw Paw,49079,Plating,No,Rachel Golota,golotar@michigan.gov ,269-370-2404,https://www.michigan.gov/pfasresponse/investigations/sites-aoi/van-buren-county/paw-paw-plating,-85.895489,42.211095,2021/03/22 00:00:00+00
480296.323386887,603818.858350228,159,Zellar Residuals Management Area,Schoolcraft ,Frankovich Road,Manistique,49854,Landfill,TBD,Mary Ann St Antoine,StAntoineM@Michigan.gov ,989-370-8035,https://www.michigan.gov/pfasresponse/investigations/sites-aoi/schoolcraft-county/zellar-residuals-management-area,-86.252333,45.985934,2021/03/22 00:00:00+00
755173.377660033,233885.638076462,160,Axalta Coating Systems,Macomb,400 North Groesbeck Highway,Mount Clemens,48043,Fire Related,No,Cynthia Paslawski,PaslawskiC@Michigan.gov,586-668-6433,https://www.michigan.gov/pfasresponse/investigations/sites-aoi/macomb-county/axalta-coating-systems,-82.886825,42.612547,2021/03/26 00:00:00+00
490373.793360678,249863.621812354,161,Warner-Lambert Company LLC,Ottawa,188 Howard Avenue,Holland,49424,Industrial,No,Nicole Sanabria,SanabriaN@Michigan.gov,517-281-7726,https://www.michigan.gov/pfasresponse/investigations/sites-aoi/ottawa-county/warner-lambert-company-llc,-86.11614,42.79968,2021/03/31 00:00:00+00
182784.776556356,671979.999925189,162,Gogebic-Iron County Airport,Gogebic,E5560 Airport Road,Ironwood,49938,Airport,Yes,Steve Harrington,HarringtonS@Michigan.gov,906-869-2806,https://www.michigan.gov/pfasresponse/investigations/sites-aoi/gogebic-county/gogebic-iron-county-airport,-90.134941,46.524918,2021/04/06 00:00:00+00
532902.231362268,465251.688456797,163,Cherry Capital Airport,Grand Traverse,727 Fly Don’t Drive,Traverse City,49686,Airport,Yes,"Brian Flickinger
","FlickingerB@Michigan.gov
","231-876-4456
",https://www.michigan.gov/pfasresponse/investigations/sites-aoi/grand-traverse-county/cherry-capital-airport,-85.58242,44.73815,2021/04/14 00:00:00+00
532960.480451315,466681.301203394,164,"United States Coast Guard Air Station, Traverse City",Grand Traverse,1169 Airport Access Road ,Traverse City,49686,Military,Yes,"Brian Flickinger
","FlickingerB@Michigan.gov
","231-876-4456
",https://www.michigan.gov/pfasresponse/investigations/sites-aoi/grand-traverse-county/east-bay-township-area-of-interest,-85.581591,44.751017,2021/04/14 00:00:00+00
699099.808824113,297364.993781148,165,Forest Waste Superfund Site,Genesee,8359 East Farrand Road,Otisville,48463,Landfill,No,Nicolas Dawson,DawsonN1@Michigan.gov ,517-897-0912,https://www.michigan.gov/pfasresponse/investigations/sites-aoi/genesee-county/forest-waste-superfund-site,-83.547314,43.200644,2021/04/29 00:00:00+00
517307.029147252,262863.731705403,166,Fenske Landfill Inc.,Ottawa ,2646 Kenowa Avenue,Tallmadge Charter Township,49544,Landfill,No,Kent Walters,WaltersK7@Michigan.gov ,616-278-4650,https://www.michigan.gov/pfasresponse/investigations/sites-aoi/ottawa-county/fenske-landfill-inc,-85.78636,42.916515,2021/05/05 00:00:00+00
508459.373433005,184534.238194964,167,Production Rubber Products,Van Buren,153 Commercial Street,Paw Paw,49079,Industrial,No,Rachel Golota,golotar@michigan.gov ,269-370-2404,https://www.michigan.gov/pfasresponse/investigations/sites-aoi/van-buren-county/production-rubber-products,-85.896328,42.21138,2021/05/12 00:00:00+00
479591.008993476,413766.509204842,168,Manistee Blacker Airport,Manistee,2323 Airport Road,Manistee,49660,Airport,No,Brandi Wheeler,WheelerB5@Michigan.gov,231-878-8066,https://www.michigan.gov/pfasresponse/investigations/sites-aoi/manistee-county/manistee-blacker-airport,-86.253766,44.275148,2021/05/18 00:00:00+00
695763.516825564,252417.387805907,169,Former Falk Road Landfill,Oakland,16000 Falk Road,Holly,48442,Landfill,Yes,Kimberly Ethridge,EthridgeK@Michigan.gov ,586-324-0183,https://www.michigan.gov/pfasresponse/investigations/sites-aoi/oakland-county/former-falk-road-landfill,-83.604301,42.79697,2021/05/10 00:00:00+00
646543.322562497,272367.396160491,170,Shiawassee Sanitary Landfill,Shiawassee,2000 Helena Street,Owosso Township ,48867,Landfill,Yes,Jessica Tashman,TashmanJ@michigan.gov,517-245-3931,https://www.michigan.gov/pfasresponse/investigations/sites-aoi/shiawassee-county/shiawassee-sanitary-landfill,-84.200729,42.987761,2021/06/03 00:00:00+00
562237.945323101,281281.579524127,171,Belding Wastewater Treatment Plant,Ionia,1500 Wells Street,Belding,48809,Wastewater,Yes,Sydney Ruhala,RuhalaS@Michigan.gov ,"517-599-5356
",https://www.michigan.gov/pfasresponse/investigations/sites-aoi/ionia-county/belding-wastewater-treatment-plant,-85.23378,43.07987,2021/06/14 00:00:00+00
538066.34108851,209963.031038977,172,Kavco Landfill,Barry,West Day Road,Plainwell,49080,Landfill,TBD,Lynn Gosson,gossonl1@michigan.gov,616-648-6937,https://www.michigan.gov/pfasresponse/investigations/sites-aoi/barry-county/kavco-landfill,-85.535862,42.439337,2021/07/09 00:00:00+00
688511.329836811,278440.11359882,173,Former EI DuPont Flint,Genesee,1555 James P. Cole Boulevard,Flint Township  ,48503,Industrial,No,Nicole Sanabria,SanabriaN@Michigan.gov,"517-281-7726
",https://www.michigan.gov/pfasresponse/investigations/sites-aoi/genesee-county/former-el-dupont-flint,-83.68408,43.03305,2021/07/12 00:00:00+00
546337.416242004,482485.197947248,174,Key II Industrial Building ,Antrim,603 Bridge St.,Elk Rapids,49629,Industrial,No,Christiaan Bon,BonC@Michigan.gov,989-370-9624,https://www.michigan.gov/pfasresponse/investigations/sites-aoi/antrim-county/key-ii-industrial-building,-85.411152,44.892536,2021/07/16 00:00:00+00
480783.998714999,279935.539341516,175,JB Sims Generating Station,Ottawa,1231 North 3rd Street,Grand Haven,49417,Industrial,No,Kent Walters,waltersk7@michigan.gov,616-278-4350,https://www.michigan.gov/pfasresponse/investigations/sites-aoi/ottawa-county/jb-sims-generating-station,-86.234312,43.070284,2021/07/28 00:00:00+00
734298.144709906,214714.17700841,176,Former Hayes Lemmerz International Inc.,Oakland,1600 West 8 Mile Road,Ferndale,48220,Industrial,No,Joseph Rogers,RogersJ5@Michigan.gov,517-599-5312,https://www.michigan.gov/pfasresponse/investigations/sites-aoi/oakland-county/former-hayes-lemmerz-international-inc,-83.14912,42.44672,2021/08/05 00:00:00+00
745535.841114173,203029.851610944,177,Stroh Parking Structure,Wayne,2935 Wright Street and 261 McDougall Street,Detroit,48226,Industrial,No,Eric A. Larson,larsone5@michigan.gov,586 255-6196,https://www.michigan.gov/pfasresponse/investigations/sites-aoi/wayne-county/stroh-parking-structure,-83.017621,42.338049,2021/08/05 00:00:00+00
690503.386553379,283986.196437396,178,Bray Road Site ,Genesee,5200 Bray Road,Genesee Township,48505,Landfill,Yes,Evin Maguire,MaguireE@Michigan.gov,517-388-3525,https://www.michigan.gov/pfasresponse/investigations/sites-aoi/genesee-county/bray-road-site,-83.657719,43.082466,2021/08/18 00:00:00+00
709843.982174352,195186.643109227,179,Cyb Tools,Wayne,42056 Michigan Avenue,Canton,48188,Plating,N/A,Eric A. Larson,LarsonE5@Michigan.gov ,586 255-6196,https://www.michigan.gov/pfasresponse/investigations/sites-aoi/wayne-county/cyb-tools,-83.453575,42.2780599,2021/09/01 00:00:00+00
487083.868068562,293194.420317313,180,3523 Heights-Ravenna Road,Muskegon,3523 Heights Ravenna Road,Muskegon (Fruitport Township),49444,Laundromat/Dry Cleaner,Yes,Peter Van Heest,vanheestp@michigan.gov,616-439-8019,https://www.michigan.gov/pfasresponse/investigations/sites-aoi/muskegon-county/3523-heights-ravenna-road,-86.15721,43.18978,2021/09/03 00:00:00+00
673146.840972426,293407.524109261,181,Pollard Landfill,Genesee,11349 McKinley Road,Montrose Township,48457,Landfill,No,Evin Maguire ,MaguireE@Michigan.gov,517-388-3525,https://www.michigan.gov/pfasresponse/investigations/sites-aoi/genesee-county/pollard-landfill,-83.86788552,43.17148,2021/09/08 00:00:00+00
310835.684133261,738198.122112302,182,Houghton County Memorial Airport,Houghton,23810 Airpark Blvd,Calumet,49913,Airport,Yes,Ashley Miller,MillerA65@Michigan.gov,906-235-7435,https://www.michigan.gov/pfasresponse/investigations/sites-aoi/houghton-county/houghton-county-memorial-airport,-88.4941,47.1687,2021/09/16 00:00:00+00
707269.922386437,239951.291040331,183,Pontiac Lake State Recreation Area,Oakland ,7800 Gale Road,Waterford,48327,Fire Related,Yes,Ira Adolphues,AdolphuesI@Michigan.gov,586-295-6682,https://www.michigan.gov/pfasresponse/investigations/sites-aoi/oakland-county/pontiac-lake-state-recreation-area,-83.4683,42.6817,2021/09/21 00:00:00+00
711269.559486809,238118.48179281,184,Oakland County International Airport ,Oakland,6500 Highland Road,Waterford,48327,Airport,Yes,Ira Adolphues,AdolphuesI@Michigan.gov,586-295-6682,https://www.michigan.gov/pfasresponse/investigations/sites-aoi/oakland-county/oakland-county-international-airport,-83.4202,42.6641,2021/09/21 00:00:00+00
534611.813898318,259566.142911698,185,Lacks Industries - Airlane ,Kent,4260 Airlane Drive SE,Kentwood ,49512,Plating,No,Brent Ritchie,Ritchieb1@michigan.gov,616-581-1782,https://www.michigan.gov/pfasresponse/investigations/sites-aoi/kent-county/lacks-industries-airlane,-85.574577,42.886178,2021/09/22 00:00:00+00
718151.35832496,188572.149875134,186,Detroit Metropolitan Wayne County Airport,Wayne,8600 Merriman Road,Romulus,48174,Airport,No,Eric Larson,LarsonE5@Michigan.gov,586-255-6196,https://www.michigan.gov/pfasresponse/investigations/sites-aoi/wayne-county/detroit-metropolitan-wayne-county-airport,-83.3554,42.2162,2021/09/23 00:00:00+00
504508.362435537,326180.449253513,187,Kunnen’s Landfill,Newaygo,3897 Ramshorn Drive ,"Fremont	",49412,Landfill,Yes,Kent Walters,WaltersK7@Michigan.gov,616-278-4350,https://www.michigan.gov/pfasresponse/investigations/sites-aoi/newaygo-county/kunnens-landfill,-85.94243,43.486837,2021/09/27 00:00:00+00
615173.393611201,248321.433610098,188,Capital Region International Airport ,Clinton,4100 Capital City Blvd,Lansing,48906,Airport,Yes,Kim Sakowski,SakowskiK@Michigan.gov,517-582-2219,https://www.michigan.gov/pfasresponse/investigations/sites-aoi/clinton-county/capital-region-international-airport,-84.5905105,42.77675,2021/10/12 00:00:00+00
538103.717485894,173884.572537436,189,Former Fox River Paper Company,Kalamazoo,300 West Highway Street,Vicksburg,49097,Paper Manufacturing,TBD,Erica Bays,BaysE@Michigan.gov,269-350-0080,https://www.michigan.gov/pfasresponse/investigations/sites-aoi/kalamazoo-county/former-fox-river-paper-company,-85.53802292,42.11444594,2021/10/13 00:00:00+00
478798.170792697,137051.398719882,190,Buckeye Niles Terminal,Berrien,2303 South Third Street,Niles,49120,Fire Related,Yes,Pablo Mora,morap@michigan.gov,269-910-0136,https://www.michigan.gov/pfasresponse/investigations/sites-aoi/berrien-county/buckeye-niles-terminal,-86.254202,41.783755,2021/10/27 00:00:00+00
484747.356004366,252183.540680652,191,Southwest Ottawa County Landfill Superfund Site,Ottawa,2901 North 160th Avenue,Park Township,49424,Landfill,Yes,Jacob Emmendorfer,EmmendorferJ2@Michigan.gov,517-245-5274,https://www.michigan.gov/pfasresponse/investigations/sites-aoi/ottawa-county/southwest-ottawa-county-landfill-superfund-site,-86.184987,42.820494,2021/11/08 00:00:00+00
786156.627777671,273311.458344069,192,Techni-Comp,St. Clair,4152 Dove Road,Port Huron,48060,Landfill,Yes,Kim Ethridge,EthridgeK@Michigan.gov,586-324-0183,https://www.michigan.gov/pfasresponse/investigations/sites-aoi/st-clair-county/techni-comp,-82.48935,42.95619,2021/11/03 00:00:00+00
666709.438810388,348825.096981317,592,Bangor Township Landfill,Bay,2305 Two Mile Road,Bay City,48706,Landfill,No,Diana Klida,KlidaD@Michigan.gov,989-280-7687,https://www.michigan.gov/pfasresponse/investigations/sites-aoi/bay-county/bangor-township-landfill,-83.92999,43.67176,2021/11/12 00:00:00+00
522092.687376578,262935.091827863,992,Spartan Chemical Superfund Site,Kent,2539 28th Street Southwest,Calgary,49509,Industrial,No,Megan Cynar,CynarM@Michigan.gov,517-256-2681,https://www.michigan.gov/pfasresponse/investigations/sites-aoi/kent-county/spartan-chemical-superfund-site,-85.727728,42.917019,2021/12/16 00:00:00+00
560716.298840689,263208.213141156,1392,Saranac Landfill,Ionia,4857 Ivan Road,Saranac,48881,Landfill,Yes,Kent Walters,Waltersk7@michigan.gov,616-278-4350,https://www.michigan.gov/pfasresponse/investigations/sites-aoi/ionia-county/saranac-landfill,-85.2545426,42.917272,2022/01/10 00:00:00+00
412285.204031546,579857.23535144,1792,Delta County Landfill,Delta,5701 19th Avenue North,Escanaba,49829,Landfill,No,John J. Ozoga,OzogaJ@michigan.gov,231-429-1718,https://www.michigan.gov/pfasresponse/investigations/sites-aoi/delta-county/delta-county-landfill,-87.126,45.765,2022/01/13 00:00:00+00
502228.442693359,246257.221859924,1793,Deyoung Landfill,Allegan,SW Corner of 76th Ave and Ottogan,Zeeland,49423,Landfill,Yes,Ray Spaulding ,SpauldingR1@Michigan.gov ,517-290-2401,https://www.michigan.gov/pfasresponse/investigations/sites-aoi/allegan-county/deyoung-landfill,-85.9712216,42.76722652,2022/01/13 00:00:00+00
475218.59968597,296241.380598281,2192,Former S.D. Warren (SAPPI),Muskegon,2400 Lakeshore Drive,Muskegon,49441,Paper Manufacturing,No,Jason Poll,PollJ@michigan.gov,616-446-1263,https://www.michigan.gov/pfasresponse/investigations/sites-aoi/muskegon-county/former-sd-warren-sappi,-86.3033374,43.216943,2022/01/24 00:00:00+00
521399.966685016,266014.041024344,2592,Riverside Sand and Gravel Landfill,Kent,2780 Butterworth Drive,Grand Rapids,49534,Landfill,No,Kent Walters,WaltersK7@Michigan.gov,616-278-4350,https://www.michigan.gov/pfasresponse/investigations/sites-aoi/kent-county/riverside-sand-and-gravel-landfill,-85.736084,42.944765,2022/02/02 00:00:00+00
725419.384845991,244624.851322478,2992,"LymTal International, Inc.",Oakland,4150 S. Lapeer Road,Lake Orion,48359,Fire Related,Yes,Cynthia Paslawski,PaslawskiC@Michigan.gov,586-668-6433,https://www.michigan.gov/pfasresponse/investigations/sites-aoi/oakland-county/lymtal-international-inc,-83.24503,42.718586,2022/02/23 00:00:00+00
454023.227734185,647334.403818608,3392,Wood Island Landfill,Alger,"Wood Island Waste Management, Inc., E1081 State Highway M-28",Wetmore,49862,Landfill,No,John J. Ozoga III,OzogaJ@Michigan.gov,231-429-1718,https://www.michigan.gov/pfasresponse/investigations/sites-aoi/alger-county/wood-island-landfill,-86.59573,46.37632,2022/03/08 00:00:00+00
606257.270717115,591962.218611163,3393,City of Mackinac Island Landfill ,Mackinac,3883 Dousman Street,Mackinac Island,49757,Landfill,No,Mary Ann St. Antoine,StantoineM@Michigan.gov,989-370-8035,https://www.michigan.gov/pfasresponse/investigations/sites-aoi/mackinac-county/city-of-mackinac-island-landfill,-84.628891,45.871278,2022/03/11 00:00:00+00
497699.775285035,345444.161022532,3394,Eagle Ottawa Newaygo Farms ,Oceana & Newaygo          ,204th Avenue,Walkerville,49459,Tannery,Yes,Kelly Moss,MossK@Michigan.gov ,616-215-4588,https://www.michigan.gov/pfasresponse/investigations/sites-aoi/oceana-county/eagle-ottawa-newaygo-farms,-86.026662,43.660301,2022/03/11 00:00:00+00
475952.932374425,318298.150988996,3793,Former Whitehall Wastewater Treatment Plant,Muskegon,2000 Holton-Whitehall Road,Whitehall,49461,Wastewater,Yes,Sydney Ruhala,RuhalaS@Michigan.gov,517-599-5356,https://www.michigan.gov/pfasresponse/investigations/sites-aoi/muskegon-county/former-whitehall-wwtp,-86.295205,43.415548,2022/03/14 00:00:00+00
790027.75776439,276989.892563477,4193,EB Eddy Paper/ Domtar Paper,Saint Clair,1700 Washington Avenue,Port Huron,48060,Paper Manufacturing,No,Kim Ethridge,EthridgeK@Michigan.gov,586-324-0183,https://www.michigan.gov/pfasresponse/investigations/sites-aoi/st-clair-county/eb-eddy-paper-domtar-paper,-82.440031,42.987801,2022/03/16 00:00:00+00
483054.357159175,279283.638024004,4593,Challenge Machinery Company,Ottawa,295 N. Beechtree Street,Grand Haven,49417,Industrial,No,Kelly Moss,MossK@michigan.gov,616-215-4588,https://www.michigan.gov/pfasresponse/investigations/sites-aoi/ottawa-county/challenge-machinery-company,-86.20641267,43.06446307,2022/03/25 00:00:00+00
535946.799038662,286615.594766154,4993,Wolverine Sole Plant (former),Kent,485 Wolverine Drive NE,Rockford,49341,Industrial,No,Leah Gies,GiesL1@Michigan.gov,616-215-4781,https://www.michigan.gov/pfasresponse/investigations/sites-aoi/kent-county/wolverine-sole-plant,-85.55637632,43.12967767,2022/03/30 00:00:00+00
479842.867676459,143351.398436539,4994,Toefco Engineered Coating Systems Inc,Berrien,1220 North 14th Street,Niles,49120,Industrial,No,Kathleen Ekstrum,EkstrumK@Michigan.gov,269-568-1373,https://www.michigan.gov/pfasresponse/investigations/sites-aoi/berrien-county/toefco-engineered-coating-systems,-86.2418,41.8405,2022/04/07 00:00:00+00
561067.805069592,194501.720223282,5393,Battle Creek Executive Airport  ,Calhoun,15551 S. Airport Road,Battle Creek,49015,Airport,Yes,Gregg Brettmann,BrettmannG@Michigan.gov,269-567-3528,https://www.michigan.gov/pfasresponse/investigations/sites-aoi/calhoun-county/battle-creek-executive-airport,-85.257965,42.29853,2022/04/28 00:00:00+00
561747.927811561,196922.211277206,5394,Kellogg Air National Guard Base Battle Creek ,Calhoun,3545 Mustang Ave.,Battle Creek,49037,Military,Yes,Gregg Brettmann,BrettmannG@Michigan.gov,269-567-3528,https://www.michigan.gov/pfasresponse/investigations/sites-aoi/calhoun-county/kellogg-angb,-85.24944,42.32027,2022/04/28 00:00:00+00
615383.067049402,247718.802062436,5395,MIARNG Lansing Hangar         ,Clinton,3700 Capital City Blvd ,Lansing ,48906,Military,No,Kim Sakowski,SakowskiK@michigan.gov      ,517-582-2219,https://www.michigan.gov/pfasresponse/investigations/sites-aoi/clinton-county/miarng-lansing-hangar,-84.588074,42.7712915,2022/04/28 00:00:00+00
557697.641772036,529739.538861287,5793,Charlevoix Municipal Well Field ,Charlevoix ,Lake Shore Drive,Charlevoix ,49720,Laundromat/Dry Cleaner,No,Nic Dawson,DawsonN1@Michigan.gov,517-897-0912,https://www.michigan.gov/pfasresponse/investigations/sites-aoi/charlevoix-county/charlevoix-municipal-well-field,-85.261833,45.3170472,2022/05/05 00:00:00+00
609673.809345228,236929.360216021,6193,State Secondary Complex,Eaton,7426 N. Canal,Dimondale,48821,Fire Related,Yes,Kim Sakowski,SakowskiK@Michigan.gov,517-582-2219,https://www.michigan.gov/pfasresponse/investigations/sites-aoi/eaton-county/state-secondary-complex ,-84.66,42.675,2022/05/09 00:00:00+00
544701.291253623,241052.078359189,6593,Middleville Wastewater Treatment Plant,Barry,607 Sheridan Street,Middleville,49333,Wastewater,Yes,Sydney Ruhala,RuhalaS@Michigan.gov,517-599-5356,https://www.michigan.gov/pfasresponse/investigations/sites-aoi/barry-county/middleville-wwtp,-85.4525872,42.7189068,2022/05/24 00:00:00+00
532739.255478287,284692.308091126,6993,North Kent Landfill,Kent,2908 10 Mile Road NE,Plainfield Township,49341,Landfill,Yes,Leah Gies,GiesL1@Michigan.gov,616-215-4781,https://www.michigan.gov/pfasresponse/investigations/sites-aoi/kent-county/north-kent-landfill,-85.59593,43.112514,2022/05/27 00:00:00+00
335261.564328242,586951.763893566,7393,Ford Airport-Iron Mountain,Dickinson ,400 Riverhills Road,Kingsford,49802,Airport,Yes,Andrew Reed,ReedA20@michigan.gov,906-250-7532,https://www.michigan.gov/pfasresponse/investigations/sites-aoi/dickinson-county/ford-airport-iron-mountain,-88.11852,45.814743,2022/06/03 00:00:00+00
708662.003981524,257597.660723506,7793,Brandon School District Wastewater Treatment Plant,Oakland,1050 Ortonville Road,Ortonville,48462,Wastewater,No,Kevin Wojciechowski,WojciechowskiK@Michigan.gov,586-291-3418,https://www.michigan.gov/pfasresponse/investigations/sites-aoi/oakland-county/brandon-school-district-wwtp,-83.444716,42.8401436,2022/06/06 00:00:00+00
708351.480867693,258317.385471269,7794,360 South Street Car Wash,Oakland,360 South Street,Ortonville,48462,Wastewater,Yes,Kevin Wojciechowski,WojciechowskiK@Michigan.gov,586-291-3418,https://www.michigan.gov/pfasresponse/investigations/sites-aoi/oakland-county/360-south-street-car-wash,-83.448244,42.846707,2022/06/06 00:00:00+00
713154.825284441,241160.589890761,7796,"General Motors Customer Care and Aftersales Facility, Waterford",Oakland,5260 Williams Lake Road,Waterford Township,48329,Industrial,Yes,Nicole Sanabria,SanabriaN@Michigan.gov ,517-281-7726,https://www.michigan.gov/pfasresponse/investigations/sites-aoi/oakland-county/general-motors-ccaf,-83.39605,42.690953,2022/06/07 00:00:00+00
705851.920378593,223577.514564576,7797,850 Ladd Road,Oakland,850 Ladd Road,Walled Lake,48390,Industrial,Yes,Colleen McLean,McleanC1@Michigan.gov,586-554-6489,https://www.michigan.gov/pfasresponse/investigations/sites-aoi/oakland-county/850-ladd-road,-83.491608,42.534706,2022/06/09 00:00:00+00
698801.738408653,216334.903481344,8193,Lyon Township Wastewater Treatment Plant ,Oakland,53656 Ten Mile Road,South Lyon,48178,Wastewater,Yes,Sydney Ruhala,RuhalaS@Michigan.gov,517-599-5356,https://www.michigan.gov/pfasresponse/investigations/sites-aoi/oakland-county/lyon-township-wastewater-treatment-plant,-83.579977,42.471387,2022/06/22 00:00:00+00
584129.981809815,379163.654242369,8593,Kleen Gene’s Laundromat,Clare,402 South Bringold Avenue,Lake George,48633,Laundromat/Dry Cleaner,Yes,Kevin Wojciechowski,WojciechowskiK@Michigan.gov,586-291-3418,https://www.michigan.gov/pfasresponse/investigations/sites-aoi/clare-county/kleen-genes-laundromat,-84.949439,43.958976,2022/07/08 00:00:00+00
574150.665623477,303785.418154733,8993,Stanton Wastewater Treatment Plant,Montcalm,Brown Road,Stanton,48888,Wastewater,No,Kevin Wojciechowski,WojciechowskiK@Michigan.gov,586-291-3418,https://www.michigan.gov/pfasresponse/investigations/sites-aoi/montcalm-county/stanton-wwtp,-85.084346,43.281392,2022/07/11 00:00:00+00
536118.789208314,199269.218489982,9393,Hydro Extrusion USA,Kalamazoo,5575 North Riverview Drive,Kalamazoo,49004,Industrial,Yes,Rachel Golota,GolotaR@Michigan.gov,269-370-2404,https://www.michigan.gov/pfasresponse/investigations/sites-aoi/kalamazoo-county/hydro-extrusion-usa,-85.56027646,42.34314142,2022/07/14 00:00:00+00
539835.018193553,250595.311365252,9793,Caledonia Wastewater Treatment Plant,Kent,8701 Cherry Valley Road,Caledonia,49316,Wastewater,TBD,Kevin Wojciechowski,WojciechowskiK@Michigan.gov,586-291-3418,https://www.michigan.gov/pfasresponse/investigations/sites-aoi/kent-county/caledonia-wwtp,-85.511295,42.805127,2022/11/15 00:00:00+00
599115.562559023,339992.665900494,10193,104 North Kinney,Isabella,104 North Kinney,Mt. Pleasant,48858,Laundromat/Dry Cleaner,No,Jeremy Boothroyd,BoothroydJ@Michigan.gov,989-891-6932,https://www.michigan.gov/pfasresponse/investigations/sites-aoi/isabella-county/104-north-kinney-avenue,-84.77,43.604444,2022/08/24 00:00:00+00
512137.405709498,220666.955206996,10593,Rockwell International Corporation,Allegan,1 Glass Street,Allegan,49010,Industrial,No,Shelby Bahaw,BahawS@Michigan.gov,517-388-4899,https://www.michigan.gov/pfasresponse/investigations/sites-aoi/allegan-county/rockwell-international-corporation,-85.850799,42.536674,2022/08/29 00:00:00+00
683265.497571544,270723.073471511,10596,Bishop International Airport Authority,Genesee,3425 W. Bristol Road,Flint,48507,Airport,No,Brian Kuberski,Kuberskib@michigan.gov,517-243-7574,https://www.michigan.gov/pfasresponse/investigations/sites-aoi/genesee-county/bishop-international-airport-authority,-83.751011,42.964886,2022/08/29 00:00:00+00
691050.902221928,278298.431201189,10597,Delphi Plants 400 and 500,Genesee,2926 Davison Road,Flint,48506,Industrial,No,Nicole Sanabria,SanabriaN@Michigan.gov ,517-281-7726,https://www.michigan.gov/pfasresponse/investigations/sites-aoi/genesee-county/delphi-plants-400-500,-83.65297,43.031133,2022/08/29 00:00:00+00
671011.432653961,229203.052574228,10993,Lucy Road Landfill,Livingston,Lucy Road,Howell ,48843,Landfill,Yes,Rebecca Taylor,taylorr@michigan.gov,517-294-5160,https://www.michigan.gov/pfasresponse/investigations/sites-aoi/livingston-county/lucy-road-landfill,-83.914,42.594,2022/10/17 00:00:00+00
479868.923308003,605696.04258823,11393,Haywire Landfill,Schoolcraft,Highway M-94,"Manistique, Hiawatha Township",49854,Landfill,No,Mary Ann St Antoine,StAntoineM@Michigan.gov,989-370-8035,https://www.michigan.gov/pfasresponse/investigations/sites-aoi/schoolcraft-county/haywire-landfill,-86.257929,46.002817,2022/10/31 00:00:00+00
619560.721454103,247528.532650845,11793,"Daggett Sand & Gravel, Inc. Landfill",Ingham,930 East Sheridan Road,Lansing,48906,Landfill,No,Evin Maguire,MaguireE@Michigan.gov ,517-388-3525,https://www.michigan.gov/pfasresponse/investigations/sites-aoi/ingham-county/daggett-sand-gravel-landfill,-84.537058,42.768922,2022/12/01 00:00:00+00
339391.845063176,585316.938283388,12193,Grede LLC Iron Mountain (Grede Landfill),Dickinson,801 South Carpenter Avenue,Kingsford,49802,Landfill,Yes,Mary Ann St Antoine,StAntoineM@Michigan.gov ,989-370-8035,https://www.michigan.gov/pfasresponse/investigations/sites-aoi/dickinson-county/grede-landfill,-88.06484,45.801012,2022/12/06 00:00:00+00
722452.077833433,238121.783265934,12593,GM LLC Pontiac North Campus,Oakland,1 Pontiac Plaza, Pontiac               ,48340,Industrial,No,Nicole Sanabria,SanabriaN@michigan.gov ,517-281-7726,https://www.michigan.gov/pfasresponse/investigations/sites-aoi/oakland-county/gm-lcc-pontiac-north-campus,-83.28383,42.66093,2022/12/13 00:00:00+00
477293.047594755,203683.760418279,13393,Former Four Star Property,Van Buren,1391 Kalamazoo Street (formerly 1415 Kalamazoo Street),South Haven,49090,Plating,Yes,Rachel Golota,GolotaR@Michigan.gov,269-370-2404,https://www.michigan.gov/pfasresponse/investigations/sites-aoi/van-buren-county/four-star-property,-86.274455,42.383659,2023/01/13 00:00:00+00
479022.650791588,303741.87692492,13793,Former BASF Muskegon,Muskegon,1740 Whitehall Rd,North Muskegon,49445,Industrial,TBD,Joe Rogers,RogersJ5@Michigan.gov ,517-599-5312,https://www.michigan.gov/pfasresponse/investigations/sites-aoi/muskegon-county/former-basf-muskegon,-86.256773,43.28458,2023/02/03 00:00:00+00
678714.019346275,214323.794778567,13794,Hamburg Township WWTP,Livingston,6400 East M-36,Hamburg,48139,Wastewater,Yes,Kevin Wojciechowski,wojciechowskik@michigan.gov,586-623-2948,https://www.michigan.gov/pfasresponse/investigations/sites-aoi/livingston-county/hamburg-township-wwtp,-83.82489,42.45827,2023/02/06 00:00:00+00
666878.635454244,232350.16911006,13795,2440 West Highland Road – Upland Area of the Shiawassee River Superfund Site,Livingston,2440 W Highland Road,Howell,48843,Industrial,Yes,Mary B. Schafer,Schaferm2@Michigan.gov,517-582-1663,https://www.michigan.gov/pfasresponse/investigations/sites-aoi/livingston-county/2440-west-highland-road,-83.963417,42.623256,2023/02/06 00:00:00+00
477478.982188607,203717.785332726,14193,1421 Kalamazoo Street ,Van Buren,1421 Kalamazoo Street ,South Haven,49090,Industrial,Yes,Rachel Golota,GolotaR@Michigan.gov,269-370-2404,https://www.michigan.gov/pfasresponse/investigations/sites-aoi/van-buren-county/1421-kalamazoo-street,-86.272198,42.38397,2023/03/01 00:00:00+00
591080.949564429,370017.565365695,14593,Surrey Township Landfill,Clare,7590 Old State Road,Farwell,48622,Landfill,Yes,Scott Malusi,malusis@michigan.gov,989-891-6983,https://www.michigan.gov/pfasresponse/investigations/sites-aoi/clare-county/surrey-township-landfill,-84.86439,43.87583,2023/03/03 00:00:00+00
512969.855557701,308019.940037912,14993,Riveridge Sewage Lagoon,Newaygo,12624 S Ferris Ave,Grant,49327,Wastewater,No,Kent Walters,WaltersK7@Michigan.gov,616-278-4350,https://www.michigan.gov/pfasresponse/investigations/sites-aoi/newaygo-county/riveridge-sewage-lagoon,-85.838277,43.323207,2023/04/03 00:00:00+00
521198.944958555,287926.428370127,15393,Sparta Foundry Waste Facility ,Kent,9737 Laubach Ave,Sparta,49345,Landfill,No,Kent Walters,WaltersK7@Michigan.gov,616-278-4350,https://www.michigan.gov/pfasresponse/investigations/sites-aoi/kent-county/sparta-foundry-waste-facility,-85.737629,43.142077,2023/04/18 00:00:00+00
676314.087020341,222015.825768487,15793,Former Genoa Township Oak Pointe WWTP   ,Livingston,5341 Brighton Road,Brighton,48116,Wastewater,TBD,Kevin Wojciechowski ,wojciechowskik@michigan.gov,586-623-2948,https://www.michigan.gov/pfasresponse/investigations/sites-aoi/livingston-county/former-genoa-township-oak-pointe-wwtp,-83.851653,42.52808,2023/04/20 00:00:00+00
742891.402343214,220794.360211346,16193,U.S. Army Garrison - Detroit Arsenal,Macomb,6501 East 11 Mile Road,Warren,48397,Military,No,Beth Place,placeb1@michigan.gov,517-899-7524,https://www.michigan.gov/pfasresponse/investigations/sites-aoi/macomb-county/us-army-garrison-detroit-arsenal,-83.042092,42.498754,2023/07/18 00:00:00+00
528212.868234363,236347.759232075,16593,Wayland Recycling Inc.,Allegan,763 W. Elm Street,Wayland,49348,Industrial,Yes,Kathleen Ekstrum,EkstrumK@michigan.gov,269-568-1373,https://www.michigan.gov/pfasresponse/investigations/sites-aoi/allegan-county/wayland-recycling,-85.65420423,42.67739008,2023/05/02 00:00:00+00
577627.564847116,270177.708995298,16994,Ionia City Landfill,Ionia,Cleveland St.,Ionia,48846,Landfill,No,Jason Harnick,Harnickj1@michigan.gov,517-599-7421,https://www.michigan.gov/pfasresponse/investigations/sites-aoi/ionia-county/ionia-city-landfill,-85.04633345,42.97842177,2023/05/10 00:00:00+00
731459.77884773,176832.815083491,16995,DSC McLouth Steel-Gibraltar Plant,Wayne,28000 West Jefferson,Gibraltar,48173,Landfill,Yes,Samantha Belisle,belisles1@michigan.gov,517-290-0686,https://www.michigan.gov/pfasresponse/investigations/sites-aoi/wayne-county/mclouth-steel-gibraltar,-83.19901,42.106639,2023/05/11 00:00:00+00
525107.024559265,212669.987818626,17393,Former Menasha Paper Mill,Allegan ,320 North Farmer,Otsego,49078,Paper Manufacturing,Yes,Ray Spaulding,spauldingr1@michigan.gov,517-290-2401,https://www.michigan.gov/pfasresponse/investigations/sites-aoi/allegan-county/former-menasha-paper-mill,-85.693278,42.464298,2023/05/10 00:00:00+00
525879.16001381,213166.473048338,17394,Menasha Landfill,Allegan ,255 East River Street,Otsego,49078,Landfill,Yes,Ray Spaulding,spauldingr1@michigan.gov,517-290-2401,https://www.michigan.gov/pfasresponse/investigations/sites-aoi/allegan-county/menasha-landfill,-85.683862,42.46874,2023/05/10 00:00:00+00
633366.902040994,187972.395140257,17793,Michner Plating – Angling Road,Jackson,1725 Angling Rd.,Jackson,49203,Plating,Yes,Zachary McCurley,McCurleyZ1@michigan.gov,517-290-2555,https://www.michigan.gov/pfasresponse/investigations/sites-aoi/jackson-county/michner-plating-angling-road,-84.38258536,42.23033975,2023/05/22 00:00:00+00
537470.835544318,286616.612051612,18193,5312 11 Mile Road NE,Kent,5312 11 Mile Road NE,Rockford,49341,Tannery,Yes,Leah Gies,GiesL1@Michigan.gov,616-215-4781,https://www.michigan.gov/pfasresponse/investigations/sites-aoi/kent-county/5312-11-mile-road-ne,-85.53764,43.12960876,2021/05/31 00:00:00+00
490209.445533663,295514.475406989,18593,Bofors Nobel,Muskegon,5025 Evanston Avenue,Egelston Township,49443,Industrial,No,Mark Reimann,ReimannM@michigan.gov,517-290-9379,https://www.michigan.gov/pfasresponse/investigations/sites-aoi/muskegon-county/bofors-nobel,-86.11878348,43.21070886,2023/05/31 00:00:00+00
310892.660110343,746903.115233754,18993,North Houghton County Water and Sewer Authority Wastewater Treatment Plant,Houghton,23749 Highway M-203,Calumet,49913,Wastewater,No,Sydney Ruhala,RuhalaS@michigan.gov,517-599-5356,https://www.michigan.gov/pfasresponse/investigations/sites-aoi/houghton-county/north-houghton-county-wsawtp,-88.497,47.247,2023/06/09 00:00:00+00
609862.731342348,438908.924100515,19393,Roscommon Area Public Schools WWTP,Roscommon,175 West Sunset Drive,Roscommon,48653,Wastewater,Yes,Kevin Wojciechowski,wojciechowskik@michigan.gov,586-623-2948,https://www.michigan.gov/pfasresponse/investigations/sites-aoi/roscommon-county/roscommon-area-public-schools-wwtp,-84.616159,44.493351,2023/06/14 00:00:00+00
563056.385210313,464204.841835295,19394,Kalkaska WWTP,Kalkaska,1005 Island Lake Road NW,Kalkaska,49646,Wastewater,Yes,Kevin Wojciechowski,wojciechowskik@michigan.gov,586-753-3891,https://www.michigan.gov/pfasresponse/investigations/sites-aoi/kalkaska-county/kalkaska-wwtp,-85.201707,44.726694,2023/06/14 00:00:00+00
666551.458216041,207289.436214545,19793,Multi Lake Water and Sewer Authority Wastewater Treatment Plant,Washtenaw,12088 North Territorial Road,Dexter,48130,Wastewater,Yes,Sydney Ruhala,RuhalaS@michigan.gov,517-599-5356,https://www.michigan.gov/pfasresponse/investigations/sites-aoi/washtenaw-county/multi-lake-wsawtp,-83.97485383,42.39770524,2023/06/23 00:00:00+00
704918.391365911,462287.911152126,20193,2nd Street Lincoln,Alcona,"S 2nd St, Lincoln, MI, 48742, USA", Lincoln,48742,Unknown,Yes,Lisa Kruse,KruseL@Michigan.gov,989-370-1424,https://www.michigan.gov/pfasresponse/investigations/sites-aoi/alcona-county/2nd-street-lincoln,-83.41204444,44.68293889,2023/07/18 00:00:00+00
671053.949764106,229109.287195097,20993,Regal Recycling (former),Livingston,645 Lucy Road,Howell,48843,Industrial,TBD,Rebecca Taylor,TaylorR@Michigan.gov,517-284-5160,https://www.michigan.gov/pfasresponse/investigations/sites-aoi/livingston-county/regal-recycling,-83.91351063,42.59314623,2023/07/06 00:00:00+00
474844.902091907,159783.377484129,21393,Michigan Tube Division,Berrien,6400 Love Road,Eau Claire,49111,Plating,Yes,Kate Ekstrum,EkstrumK@Michigan.gov,269-568-1373,https://www.michigan.gov/pfasresponse/investigations/sites-aoi/berrien-county/michigan-tube-division,-86.30255939,41.98833231,2023/07/18 00:00:00+00
481017.283533168,294607.134674541,21394,Quality Plating,Muskegon,2712 McIlwraith,Muskegon Heights,49444,Plating,No,Rikki Oden,OdenR@michigan.gov,517-290-9223,https://www.michigan.gov/pfasresponse/investigations/sites-aoi/muskegon-county/quality-plating,-86.231903,43.20238486,2023/07/31 00:00:00+00
537593.514406131,231886.229451367,21794,Misak Landfill,Barry,1075 South Patterson Road,Yankee Springs,49348,Landfill,Yes,Lynn Gosson,gossonl1@michigan.gov,616-648-6937,https://www.michigan.gov/pfasresponse/investigations/sites-aoi/barry-county/misak-landfill,-85.5400433,42.63677794,2023/08/17 00:00:00+00
341414.438686746,585669.816214806,21795,Central Landfill Authority,Dickinson County,Hydraulic Falls Road,Iron Mountain,49801,Landfill,Yes,Mary Ann St. Antoine,StantoineM@Michigan.gov,989-370-8035,https://www.michigan.gov/pfasresponse/investigations/sites-aoi/dickinson-county/central-landfill-authority,-88.038942,45.804655,2023/08/22 00:00:00+00
670138.610920341,337829.22649457,22194,"Bay City Fire Department, Station #2",Bay,1000 Fremont Avenue,Bay City,48708,Fire Station,No,Diana Klida,KlidaD@Michigan.gov,989-280-7687,https://www.michigan.gov/pfasresponse/investigations/sites-aoi/bay-county/bay-city-fire-department-station-2,-83.890953,43.572011,2023/07/27 00:00:00+00
561295.672679276,405565.583749665,22594,McBain Sanitary Wastewater Treatment Plant,Missaukee,261 North Cherry Street,McBain,48657,Wastewater,No,Kevin Wojciechowski,wojciechowskik@michigan.gov,586-623-2948,https://www.michigan.gov/pfasresponse/investigations/sites-aoi/missaukee-county/mcbain-sanitary-wwtp,-85.230935,44.198958,2023/08/25 00:00:00+00
476750.675456102,377321.455017837,23489,Mason County Sanitary Landfill,Mason County,"600 W 1st St, Scottville, MI, 49454, USA",Scottville,49454,Landfill,No,James Staley,Staleyj1@michigan.gov,(231) 429-1945,https://www.michigan.gov/pfasresponse/investigations/sites-aoi/mason-county/mason-county-landfill,-86.28778881,43.9469609,2023/09/13 16:00:00+00
469630.380128766,311597.512169052,24296,Former Fruitland Township Landfill,Muskegon County,"5281 Michillinda Rd, Whitehall, MI, 49461, USA",Whitehall,49461,Landfill,Yes,Matthew Pfister,PfisterM@Michigan.gov,616-485-1861,https://www.michigan.gov/pfasresponse/investigations/sites-aoi/muskegon-county/fruitland-township-landfill,-86.37293545,43.35500326,2023/09/25 16:00:00+00
691319.932853073,272760.974691225,24300,3283 South Dort Highway,Genesee County,"3283 S Dort Hwy, Burton, MI, 48507, USA",Burton,48529,Industrial,TBD,Brian Kuberski,Kuberskib@michigan.gov,517-243-7574,https://www.michigan.gov/pfasresponse/investigations/sites-aoi/genesee-county/3283-south-dort,-83.650786,42.981456,2023/10/26 16:00:00+00
686398.326873692,293151.151371366,24700,11134 North Saginaw,Genesee County,"11134 N Saginaw Rd, Clio, MI, 48420, USA",Clio,48420,Fire Related,TBD,Brian Kuberski,KuberskiB@Michigan.gov,517-243-7574,https://www.michigan.gov/pfasresponse/investigations/sites-aoi/genesee-county/11134-north-saginaw,-83.70501398,43.16598898,2023/10/26 16:00:00+00
619102.197689379,245541.302631792,25106,"Demmer Corporation (LOC Performance Products, Inc.)",Ingham County,"1600 North Larch Street, Lansing, Michigan",Lansing,48906,Industrial,No,Sam Cairns,CairnsS2@Michigan.gov,517-898-4058,https://www.michigan.gov/pfasresponse/investigations/sites-aoi/ingham-county/demmer-corporation,-84.54309098,42.751102,2023/11/15 17:00:00+00
696905.000348128,190727.283036474,25508,Jackson Cleaners,Washtenaw County,"2 W Michigan Ave, Ypsilanti, MI, 48197, USA",Ypsilanti,48197,Laundromat/Dry Cleaner,No,Zach McCurley,mccurleyz1@michigan.gov,517-290-9074,https://www.michigan.gov/pfasresponse/investigations/sites-aoi/washtenaw-county/jackson-cleaners,-83.61195399,42.24135899,2023/11/28 17:00:00+00
717136.167069497,195736.674261276,25908,"Cul-Mac Industries, LLC (former 3M AC&S Division)",Wayne County,"3720 Venoy Rd, Wayne, MI, 48184, USA",Wayne,48184,Industrial,No,Anna Harris,HarrisA44@Michigan.gov,586-515-0350,https://www.michigan.gov/pfasresponse/investigations/sites-aoi/wayne-county/cul-mac-industries,-83.36496,42.28097798,2023/12/15 17:00:00+00
358313.574325889,769263.546345477,25909,Copper Harbor Landfill,Keweenaw County,"Manganese Rd, Copper Harbor, MI, 49918, USA",Copper Harbor,49918,Landfill,TBD,James Staley,StaleyJ1@Michigan.gov,231-429-1945,https://www.michigan.gov/pfasresponse/investigations/sites-aoi/keweenaw-county/copper-harbor-landfill,-87.877611,47.459992,2023/12/13 17:00:00+00
557107.321498489,263416.452936662,25910,Lowell City Landfill,Ionia County,"Ware Rd, Lowell, MI, 49331, USA",Lowell,49331,Landfill,Yes,Daniel Ten Brink,TenBrinkD@Michigan.gov,616-581-1473,https://www.michigan.gov/pfasresponse/investigations/sites-aoi/ionia-county/lowell-city-landfill,-85.298708,42.919422,2023/11/30 17:00:00+00
683871.529496178,277645.687883322,26591,"Container Specialties, Inc.",Genesee County,"3261 Flushing Road, flint tw",Flushing,48433,Laundromat/DryCleaner,Yes,Brian Kuberski,Kuberskib@michigan.gov,517-243-7574,https://www.michigan.gov/pfasresponse/investigations/sites-aoi/genesee-county/container-specialties-inc,-83.741275,43.02705,2024/01/05 17:00:00+00
613530.138172737,306155.204264429,26995,515 North Union Street,Gratiot County,"515 N Union St, Ithaca, MI, 48847, USA",Ithaca,48847,Industrial,No,Jessica Tashman,TashmanJ@Michigan.gov,517-245-3931,https://www.michigan.gov/pfasresponse/investigations/sites-aoi/gratiot-county/515-north-union-street,-84.59856199,43.29772098,2024/01/12 17:00:00+00
366551.107639506,661435.817254369,27395,West Marquette County Sanitation Authority (WMCSA) Landfill,Marquette County,"US-41, Ishpeming Twp, MI, 49849, USA",Ishpeming,49849,Landfill,No,Mary Ann St. Antoine,StantoineM@Michigan.gov,989 370-8035,https://www.michigan.gov/pfasresponse/investigations/sites-aoi/marquette-county/west-marquette-county-sanitation-authority-landfill,-87.736883,46.491659,2024/01/23 17:00:00+00
610246.261690962,217948.226561966,27824,916 South Main Street,Eaton County,"916 S Main St, Eaton Rapids, MI, 48827, USA",Eaton Rapids,48827,Laundromat/DryCleaner,TBD,Rebecca Taylor,TaylorR@Michigan.gov,517-284-5160,https://www.michigan.gov/pfasresponse/investigations/sites-aoi/eaton-county/916-south-main-street ,-84.656798,42.504,2024/02/28 17:00:00+00
535469.696487012,258109.351401982,27825,Lacks Barden Plating Facility,Kent County,"4090 Barden St SE, Kentwood, MI, 49512, USA",Grand Rapids,49512,Plating,TBD,Brent Ritchie,RitchieB1@michigan.gov,616-581-1782,https://www.michigan.gov/pfasresponse/investigations/sites-aoi/kent-county/lack-barden-plating-facility,-85.56417067,42.873018,2024/02/26 17:00:00+00
712149.883828108,246998.856492124,28625,Ben Powell Landfill (also known as Clarkston Landfill),Oakland County,"6440 Clarkston Rd, Clarkston, MI, 48346, USA",Clarkston,48346,Landfill,Yes,Emily Bertolini,bertolinie@michigan.gov,517-614-6316,https://www.michigan.gov/pfasresponse/investigations/sites-aoi/oakland-county/ben-powell-landfill,-83.40609477,42.74378135,2024/02/15 17:00:00+00
632669.985742138,187503.490743025,29035,444 East South Street,Jackson County,"444 E South St, Jackson, MI, 49203, USA",Jackson,49203,Plating,No,Zach McCurley,McCurleyZ1@michigan.gov,517-290-9074,https://www.michigan.gov/pfasresponse/investigations/sites-aoi/jackson-county/444-east-south-street,-84.39114,42.22624,2024/02/27 17:00:00+00
373151.017909881,506692.460670244,29447,Menominee Warehouse Fire,Menominee County,"701 4th Ave, Menominee, MI, 49858, USA",Menominee,49858,Fire Related,No,Ashley Miller,MillerA65@Michigan.gov,906-235-7435,https://www.michigan.gov/pfasresponse/investigations/sites-aoi/menominee-county/menominee-warehouse-fire,-87.61024053,45.10058661,2024/04/01 16:00:00+00
662931.237087157,197947.810844028,29852,Former Federal Screw Works,Washtenaw County,"425 Congdon St, Chelsea, MI, 48118, USA",Chelsea,48118,Industrial,No,Ashley Lesser,LesserA@Michigan.gov,517-285-6324,https://www.michigan.gov/pfasresponse/investigations/sites-aoi/washtenaw-county/former-federal-screw-works,-84.021532,42.31438401,2024/06/05 16:00:00+00
518056.453619915,262530.418118895,30254,New Era Properties ,Kent County,"2637 Wilson Ave SW, Walker, MI, 49534, USA",Walker,49534,Landfill,Yes,Christine Matlock,MatlockC2@Michigan.gov,517-290-4612,https://www.michigan.gov/pfasresponse/investigations/sites-aoi/kent-county/new-era-properties,-85.777191,42.913494,2024/05/01 16:00:00+00
666184.725227819,349113.841466713,30255,Hartley & Hartley Landfill,Bay County,"2370 2 Mile Rd, Kawkawlin, MI, 48631, USA",Bay City,48706,Landfill,No,Diana Klida,KlidaD@Michigan.gov,989-280-7687, https://www.michigan.gov/pfasresponse/investigations/sites-aoi/bay-county/hartley-and-hartley-landfill,-83.93640673,43.67447712,2024/05/09 16:00:00+00
737221.494759223,238344.87579775,30656,Stan’s Trucking Landfill,Oakland County,"1536 School Rd, Rochester Hills, MI, 48307, USA",Rochester Hills,48307,Landfill,Yes,Kimberly Ethridge,EthridgeK@Michigan.gov,586-324-0183,https://www.michigan.gov/pfasresponse/investigations/sites-aoi/oakland-county/stans-trucking-landfill,-83.10365236,42.658477,2024/05/20 16:00:00+00
569651.252744538,512380.923671283,31062,East Jordan Disposal,Charlevoix County,"700 Nichols St, East Jordan, MI, 49727, USA",East Jordan,49727,Landfill,No,Lisa Kruse,KruseL@Michigan.gov,989-370-1424,https://www.michigan.gov/pfasresponse/investigations/sites-aoi/charlevoix-county/east-jordan-disposal,-85.11177302,45.15972402,2024/05/28 16:00:00+00
306951.735222805,729806.815838628,31468,Peterson-Lahti Landfill,Houghton County,"46730 Lahti Rd, Houghton, MI, 49931, USA",Houghton,49931,Landfill,TBD,James Staley,StaleyJ1@Michigan.gov,231-429-1945,https://www.michigan.gov/pfasresponse/investigations/sites-aoi/houghton-county/peterson-lahti-landfill,-88.541735,47.092118,2024/07/11 16:00:00+00
689022.794493312,218792.192190825,31869,Superior Sanitation Brighton ,Livingston County,"7350 Rushton Rd, Brighton, MI, 48116, USA",Brighton,48116,Industrial,TBD,Rebecca Taylor,TaylorR@Michigan.gov,517-284-5160,https://www.michigan.gov/pfasresponse/investigations/sites-aoi/livingston-county/superior-sanitation-brighton,-83.69806103,42.496001,2024/07/30 16:00:00+00
667998.139686802,344683.068815945,32273,Dobson Industrial Inc,Bay County,"3660 N Euclid Ave, Bay City, MI, 48706, USA",Bay City,48706,Industrial,No,Diana Klida,KlidaD@Michigan.gov,989-280-7687,https://www.michigan.gov/pfasresponse/investigations/sites-aoi/bay-county/dobson-industrial ,-83.91530797,43.63418801,2024/08/26 16:00:00+00
603804.944137318,492470.555906708,32274,Alta Equipment,Otsego County,"3725 Old US Highway 27 S, Bagley, MI, 49735, USA",Gaylord,49735,Industrial,TBD,Christiaan Bon,BonC@Michigan.gov,989-370-9624,https://www.michigan.gov/pfasresponse/investigations/sites-aoi/otsego-county/alta-equipment ,-84.68142901,44.97633699,2024/08/28 16:00:00+00
739679.534073554,237580.459282879,32682,Liquid Disposal Inc.,Macomb County,"3901 Hamlin Rd, Shelby Township, MI, 48317, USA",Utica,48317,Industrial,No,Wally Wagaw,WagawW@Michigan.gov,517-648-1540,https://www.michigan.gov/pfasresponse/investigations/sites-aoi/macomb-county/liquid-disposal,-83.07400995,42.65082758,2024/09/06 16:00:00+00
702166.507256239,212525.008159826,33084,Former Anderson Landfill,Oakland County,"50250 Eight Mile Rd, Northville, MI, 48167, USA",Northville,48167,Landfill,Yes,Ira Adolphues,AdolphuesI@Michigan.gov,586-295-6682,https://www.michigan.gov/pfasresponse/investigations/sites-aoi/oakland-county/former-anderson-municipal-landfill,-83.54043045,42.43620571,2024/09/10 16:00:00+00
733481.899834389,183004.139511161,33487,McLouth Steel Corp. Trenton,Wayne County,"1491 W Jefferson Ave, Trenton, MI, 48183, USA",Trenton,48183,Industrial,No,Megan Cynar,Cynarm@michigan.gov,517-256-2681,https://www.michigan.gov/pfasresponse/investigations/sites-aoi/wayne-county/mclouth-steel-trenton ,-83.17205201,42.161574,2024/09/16 16:00:00+00
709718.727240313,195190.925345216,33488,Michigan Avenue Dump,Wayne County,"42158 Michigan Ave, Canton, MI, 48188, USA",Canton,48188,Landfill,No,Eric Larson,larsone5@michigan.gov,(586) 255-6196,https://www.michigan.gov/pfasresponse/investigations/sites-aoi/wayne-county/michigan-avenue-dump ,-83.45507502,42.278134,2024/09/16 16:00:00+00
686304.474307157,272587.911013539,33891,GM Van Slyke,Genesee County,"G3100 Van Slyke Rd, Flint, MI, 48507, USA",Flint,48507,Industrial,No,"William Grossett, U.S. EPA RCRA Corrective Action Project Manager",Grosset.William@epa.gov,(312)-886-7159,https://www.michigan.gov/pfasresponse/investigations/sites-aoi/genesee-county/gm-van-slyke ,-83.71313516,42.98092484,2024/09/17 16:00:00+00
654685.993341437,333325.766443278,34293,MBS International Airport,Saginaw County,"8500 Garfield Rd, Freeland MI, 48623",Freeland,48623,Airport,Yes,Andrea Zuidema,ZuidemaA1@Michigan.gov,989-297-3005,https://www.michigan.gov/pfasresponse/investigations/sites-aoi/saginaw-county/mbs-international-airport,-84.08355077,43.53486643,2024/09/18 16:00:00+00
620582.841715402,565164.39623379,34695,Former City of Cheboygan Landfill,Cheboygan County,"1011 S Eastern Ave, Cheboygan, MI, 49721, USA",Cheboygan,49721,Landfill,Yes,Lisa Kruse,KruseL@michigan.gov,989-370-1424,https://www.michigan.gov/pfasresponse/investigations/sites-aoi/cheboygan-county/former-cheboygan-landfill,-84.45104241,45.62781851,2024/09/20 16:00:00+00
